{
  "version": 0.6,
  "generator": "Overpass API 0.7.62.1 084b4234",
  "osm3s": {
    "timestamp_osm_base": "2024-04-16T19:52:14Z",
    "timestamp_areas_base": "2024-04-16T16:17:59Z",
    "copyright": "The data included in this document is from www.openstreetmap.org. The data is made available under ODbL."
  },
  "elements": [

{
  "type": "node",
  "id": 17401552,
  "lat": 50.8356748,
  "lon": 4.3362419,
  "tags": {
    "iata": "ZYR",
    "name": "Bruxelles-Midi - Brussel-Zuid",
    "name:de": "Brüssel-Süd",
    "name:en": "Brussels-South",
    "name:es": "Bruselas Sur",
    "name:fr": "Bruxelles-Midi",
    "name:nl": "Brussel-Zuid",
    "name:ur": "جنوبی برسلز (مِڈی)",
    "operator": "NMBS/SNCB",
    "public_transport": "station",
    "railway": "station",
    "railway:ref": "FBMZ",
    "railway:ref:DB": "XBB",
    "ref": "FBMZ",
    "uic_ref": "8814001",
    "website": "http://www.belgianrail.be/Station.ashx?lang=nl&stationId=8814001",
    "wheelchair": "yes",
    "wikidata": "Q800587",
    "wikipedia": "fr:Gare de Bruxelles-Midi"
  }
},
{
  "type": "node",
  "id": 21309047,
  "lat": 50.8245646,
  "lon": 3.2644362,
  "tags": {
    "name": "Kortrijk",
    "name:fr": "Courtrai",
    "operator": "NMBS/SNCB",
    "public_transport": "station",
    "railway": "station",
    "railway:ref": "LK",
    "uic_ref": "8800077",
    "wheelchair": "yes",
    "wikidata": "Q2786619",
    "wikipedia": "nl:Station Kortrijk"
  }
},
{
  "type": "node",
  "id": 26446051,
  "lat": 50.5883281,
  "lon": 5.8550986,
  "tags": {
    "internet_access": "yes",
    "name": "Verviers-Central",
    "name:fr": "Verviers-Central",
    "name:nl": "Verviers-Centraal",
    "operator": "NMBS/SNCB",
    "public_transport": "station",
    "railway": "station",
    "railway:ref": "GV",
    "train": "yes",
    "uic_ref": "8844008",
    "website": "http://www.belgianrail.be/Station.ashx?lang=nl&stationId=8844008",
    "wikidata": "Q2234830",
    "wikipedia": "fr:Gare de Verviers-Central"
  }
},
{
  "type": "node",
  "id": 26912267,
  "lat": 50.6011721,
  "lon": 4.3354085,
  "tags": {
    "name": "Nivelles",
    "name:fr": "Nivelles",
    "name:nl": "Nijvel",
    "operator": "NMBS/SNCB",
    "public_transport": "station",
    "railway": "station",
    "railway:ref": "FNVT",
    "uic_ref": "8814209",
    "website": "http://www.belgianrail.be/fr/gares/recherche-gares/19/nivelles.aspx",
    "wikidata": "Q2953782",
    "wikipedia": "fr:Gare de Nivelles"
  }
},
{
  "type": "node",
  "id": 56336696,
  "lat": 51.0556073,
  "lon": 3.7407593,
  "tags": {
    "name": "Gent-Dampoort",
    "name:fr": "Gand-Dampoort",
    "operator": "NMBS/SNCB",
    "public_transport": "station",
    "railway": "station",
    "railway:ref": "FGDM",
    "train": "yes",
    "wheelchair": "no",
    "wikidata": "Q3096519",
    "wikipedia": "nl:Station Gent-Dampoort"
  }
},
{
  "type": "node",
  "id": 60475728,
  "lat": 50.8918988,
  "lon": 4.0714017,
  "tags": {
    "name": "Denderleeuw",
    "public_transport": "station",
    "railway": "station",
    "railway:ref": "FDD",
    "train": "yes",
    "wikidata": "Q1938674"
  }
},
{
  "type": "node",
  "id": 60849950,
  "lat": 50.8513926,
  "lon": 3.6015721,
  "tags": {
    "name": "Oudenaarde",
    "operator": "NMBS/SNCB",
    "operator:wikidata": "Q524255",
    "public_transport": "station",
    "railway": "station",
    "railway:ref": "FDN",
    "train": "yes",
    "wikidata": "Q2507498",
    "wikipedia": "nl:Station Oudenaarde"
  }
},
{
  "type": "node",
  "id": 66180313,
  "lat": 50.8601446,
  "lon": 4.3614901,
  "tags": {
    "name": "Bruxelles-Nord - Brussel-Noord",
    "name:de": "Brüssel-Nord",
    "name:en": "Brussels-North",
    "name:fr": "Bruxelles-Nord",
    "name:nl": "Brussel-Noord",
    "name:ur": "برسلز شمال",
    "operator": "NMBS/SNCB",
    "operator:wikidata": "Q524255",
    "public_transport": "station",
    "railway": "station",
    "ref": "FBN",
    "train": "yes",
    "uic_ref": "8812005",
    "wheelchair": "limited",
    "wikidata": "Q660792",
    "wikipedia": "nl:Station Brussel-Noord"
  }
},
{
  "type": "node",
  "id": 96658277,
  "lat": 51.0730461,
  "lon": 4.0424143,
  "tags": {
    "name": "Zele",
    "operator": "NMBS/SNCB",
    "operator:wikidata": "Q524255",
    "public_transport": "station",
    "railway": "station",
    "railway:ref": "FZ",
    "train": "yes",
    "wheelchair": "yes",
    "wikidata": "Q2076395",
    "wikipedia": "nl:Station Zele"
  }
},
{
  "type": "node",
  "id": 256563112,
  "lat": 51.0177129,
  "lon": 4.4837420,
  "tags": {
    "addr:country": "BE",
    "name": "Mechelen",
    "name:fr": "Malines",
    "name:ur": "میخلن",
    "operator": "NMBS/SNCB",
    "operator:wikidata": "Q524255",
    "public_transport": "station",
    "railway": "station",
    "railway:ref": "FM",
    "uic_ref": "8822004",
    "wheelchair": "no",
    "wikidata": "Q770919",
    "wikipedia": "nl:Station Mechelen"
  }
},
{
  "type": "node",
  "id": 269183362,
  "lat": 51.1807831,
  "lon": 3.5753588,
  "tags": {
    "name": "Eeklo",
    "operator": "NMBS/SNCB",
    "operator:wikidata": "Q524255",
    "public_transport": "station",
    "railway": "station",
    "railway:ref": "FKLO",
    "train": "yes",
    "wheelchair": "yes",
    "wikidata": "Q12446"
  }
},
{
  "type": "node",
  "id": 306203775,
  "lat": 50.6972783,
  "lon": 4.0471298,
  "tags": {
    "name": "Enghien - Edingen",
    "name:fr": "Enghien",
    "name:nl": "Edingen",
    "operator": "NMBS/SNCB",
    "public_transport": "station",
    "railway": "station",
    "railway:ref": "FNG",
    "uic_ref": "8883311",
    "website": "http://www.belgianrail.be/fr/gares/recherche-gares/20/enghien.aspx",
    "wheelchair": "no",
    "wikidata": "Q3095735",
    "wikipedia": "fr:Gare d'Enghien"
  }
},
{
  "type": "node",
  "id": 315220553,
  "lat": 50.7818155,
  "lon": 3.0462815,
  "tags": {
    "name": "Wervik",
    "operator": "NMBS/SNCB",
    "public_transport": "station",
    "railway": "station",
    "railway:ref": "LWK",
    "train": "yes",
    "wikidata": "Q2746917",
    "wikipedia": "nl:Station Wervik"
  }
},
{
  "type": "node",
  "id": 348421822,
  "lat": 51.2159949,
  "lon": 4.4211011,
  "tags": {
    "addr:country": "BE",
    "iata": "ZWE",
    "layer": "-2",
    "name": "Antwerpen-Centraal",
    "name:fr": "Anvers-Central",
    "operator": "NMBS/SNCB",
    "operator:wikidata": "Q524255",
    "public_transport": "station",
    "railway": "station",
    "railway:ref:DB": "XBAC",
    "ref": "FN",
    "uic_ref": "8821006",
    "wheelchair": "yes",
    "wikidata": "Q800398",
    "wikipedia": "nl:Station Antwerpen-Centraal"
  }
},
{
  "type": "node",
  "id": 351590239,
  "lat": 51.1975154,
  "lon": 4.3909499,
  "tags": {
    "name": "Antwerpen-Zuid",
    "operator:wikidata": "Q524255",
    "public_transport": "station",
    "railway": "station",
    "railway:ref": "FNZD",
    "railway:ref:DB": "XBAZ",
    "train": "yes",
    "wikidata": "Q1935700",
    "wikipedia": "nl:Station Antwerpen-Zuid"
  }
},
{
  "type": "node",
  "id": 355017335,
  "lat": 50.7993956,
  "lon": 3.1137895,
  "tags": {
    "name": "Menen",
    "name:fr": "Menin",
    "operator": "NMBS/SNCB",
    "public_transport": "station",
    "railway": "station",
    "railway:ref": "FME",
    "train": "yes",
    "wheelchair": "yes",
    "wikidata": "Q3097017"
  }
},
{
  "type": "node",
  "id": 390394452,
  "lat": 50.0731555,
  "lon": 4.6026887,
  "tags": {
    "name": "Olloy sur Viroin",
    "operator": "CFV3V",
    "public_transport": "station",
    "railway": "station"
  }
},
{
  "type": "node",
  "id": 390394484,
  "lat": 50.0904862,
  "lon": 4.6822624,
  "tags": {
    "name": "Treignes",
    "name:nl": "Treignes",
    "railway": "station",
    "wikidata": "Q2584835",
    "wikipedia": "fr:Gare de Treignes"
  }
},
{
  "type": "node",
  "id": 390396573,
  "lat": 51.2048382,
  "lon": 3.4465350,
  "tags": {
    "name": "Maldegem",
    "operator": "Stoomcentrum Maldegem",
    "operator:wikidata": "Q1852715",
    "public_transport": "station",
    "railway": "station",
    "railway:ref": "FMG",
    "train": "yes",
    "usage": "tourism",
    "wheelchair": "yes",
    "wikidata": "Q2357673"
  }
},
{
  "type": "node",
  "id": 390958436,
  "lat": 50.0930717,
  "lon": 4.5299392,
  "tags": {
    "name": "Mariembourg (CFV3V)",
    "railway": "station"
  }
},
{
  "type": "node",
  "id": 420304073,
  "lat": 50.3261702,
  "lon": 4.9779057,
  "tags": {
    "name": "Dorinne-Durnal",
    "public_transport": "station",
    "railway": "station"
  }
},
{
  "type": "node",
  "id": 436458637,
  "lat": 50.6286589,
  "lon": 3.3572745,
  "tags": {
    "name": "Froyennes",
    "name:nl": "Froyennes",
    "operator": "NMBS/SNCB",
    "public_transport": "station",
    "railway": "station",
    "railway:ref": "GFY",
    "start_date": "1842-10-24",
    "start_date:source": "https://www.wikidata.org/wiki/Q2202960",
    "uic_ref": "8885068",
    "website": "http://www.belgianrail.be/fr/gares/recherche-gares/20/froyennes.aspx",
    "wheelchair": "yes",
    "wikidata": "Q3096496",
    "wikipedia": "fr:Gare de Froyennes"
  }
},
{
  "type": "node",
  "id": 446059037,
  "lat": 50.4777875,
  "lon": 4.1806829,
  "tags": {
    "name": "La Louvière-Centre",
    "name:nl": "La Louvière-Centre",
    "operator": "NMBS/SNCB",
    "public_transport": "station",
    "railway": "station",
    "railway:ref": "LVR",
    "uic_ref": "8882107",
    "website": "http://www.belgianrail.be/fr/gares/recherche-gares/19/lalouviere-centre.aspx",
    "wikidata": "Q1892465",
    "wikipedia": "fr:Gare de La Louvière-Centre"
  }
},
{
  "type": "node",
  "id": 496893320,
  "lat": 51.1076068,
  "lon": 3.9862766,
  "tags": {
    "internet_access": "no",
    "name": "Lokeren",
    "name:fr": "Locres",
    "operator": "NMBS/SNCB",
    "operator:wikidata": "Q524255",
    "public_transport": "station",
    "railway": "station",
    "railway:ref": "FLK",
    "train": "yes",
    "wikidata": "Q2614291",
    "wikipedia": "nl:Station Lokeren"
  }
},
{
  "type": "node",
  "id": 499183563,
  "lat": 50.8394627,
  "lon": 4.0261778,
  "tags": {
    "name": "Ninove",
    "operator": "NMBS/SNCB",
    "operator:wikidata": "Q524255",
    "public_transport": "station",
    "railway": "station",
    "railway:ref": "FNN",
    "train": "yes",
    "wikidata": "Q2226318",
    "wikipedia": "nl:Station Ninove"
  }
},
{
  "type": "node",
  "id": 506056777,
  "lat": 50.6351456,
  "lon": 6.0387547,
  "tags": {
    "name": "Eupen",
    "name:de": "Eupen",
    "name:fr": "Eupen",
    "name:nl": "Eupen",
    "operator": "NMBS/SNCB",
    "public_transport": "station",
    "railway": "station",
    "train": "yes",
    "uic_ref": "8844628",
    "website": "http://www.belgianrail.be/fr/gares/recherche-gares/15/eupen.aspx",
    "wheelchair": "yes",
    "wikidata": "Q2659653"
  }
},
{
  "type": "node",
  "id": 506944265,
  "lat": 51.0772747,
  "lon": 2.6021635,
  "tags": {
    "name": "De Panne",
    "name:fr": "La Panne",
    "operator": "NMBS/SNCB",
    "operator:wikidata": "Q524255",
    "public_transport": "station",
    "railway": "station",
    "railway:ref": "FDK",
    "train": "yes",
    "wikidata": "Q2419184",
    "wikipedia": "nl:Station De Panne"
  }
},
{
  "type": "node",
  "id": 506950667,
  "lat": 51.0251661,
  "lon": 3.0440745,
  "tags": {
    "name": "Kortemark",
    "operator": "NMBS/SNCB",
    "operator:wikidata": "Q524255",
    "public_transport": "station",
    "railway": "station",
    "railway:ref": "FTK",
    "train": "yes",
    "wheelchair": "yes",
    "wikidata": "Q2055540",
    "wikipedia": "nl:Station Kortemark"
  }
},
{
  "type": "node",
  "id": 525922925,
  "lat": 50.9661770,
  "lon": 4.6135917,
  "tags": {
    "name": "Haacht",
    "public_transport": "station",
    "railway": "station",
    "wikidata": "Q289086"
  }
},
{
  "type": "node",
  "id": 537522410,
  "lat": 50.8543508,
  "lon": 2.7368606,
  "tags": {
    "name": "Poperinge",
    "operator": "NMBS/SNCB",
    "operator:wikidata": "Q524255",
    "public_transport": "station",
    "railway": "station",
    "railway:ref": "FPP",
    "train": "yes",
    "uic_ref": "8896735",
    "wikidata": "Q2221445",
    "wikipedia": "nl:Station Poperinge"
  }
},
{
  "type": "node",
  "id": 565768238,
  "lat": 50.9426871,
  "lon": 4.0391618,
  "tags": {
    "name": "Aalst",
    "name:fr": "Alost",
    "public_transport": "station",
    "railway": "station",
    "railway:ref": "FLS",
    "train": "yes",
    "uic_ref": "8895000",
    "wheelchair": "yes",
    "wikidata": "Q2741273"
  }
},
{
  "type": "node",
  "id": 631428707,
  "lat": 50.9580659,
  "lon": 4.6387127,
  "tags": {
    "name": "Wespelaar-Tildonk",
    "operator:wikidata": "Q524255",
    "public_transport": "station",
    "railway": "station",
    "wikidata": "Q1925047",
    "wikipedia": "nl:Station Wespelaar-Tildonk"
  }
},
{
  "type": "node",
  "id": 660115815,
  "lat": 50.9966542,
  "lon": 3.6495479,
  "tags": {
    "name": "De Pinte",
    "operator": "NMBS/SNCB",
    "public_transport": "station",
    "railway": "station",
    "railway:ref": "FPT",
    "train": "yes",
    "wheelchair": "yes",
    "wikidata": "Q3096355"
  }
},
{
  "type": "node",
  "id": 705226902,
  "lat": 50.9139858,
  "lon": 3.2554117,
  "tags": {
    "name": "Ingelmunster",
    "operator": "NMBS/SNCB",
    "operator:wikidata": "Q524255",
    "public_transport": "station",
    "railway": "station",
    "railway:ref": "FNM",
    "train": "yes",
    "uic_ref": "8896925",
    "wikidata": "Q2007374"
  }
},
{
  "type": "node",
  "id": 727306052,
  "lat": 50.8111783,
  "lon": 3.1826776,
  "tags": {
    "name": "Wevelgem",
    "operator": "NMBS/SNCB",
    "operator:wikidata": "Q524255",
    "public_transport": "station",
    "railway": "station",
    "railway:ref": "FWM",
    "train": "yes",
    "wikidata": "Q2171382",
    "wikipedia": "nl:Station Wevelgem"
  }
},
{
  "type": "node",
  "id": 827977507,
  "lat": 51.0920383,
  "lon": 3.4489698,
  "tags": {
    "name": "Aalter",
    "operator": "NMBS/SNCB",
    "operator:wikidata": "Q524255",
    "public_transport": "station",
    "railway": "station",
    "railway:ref": "FLT",
    "train": "yes",
    "uic_ref": "8891140",
    "wikidata": "Q2198493",
    "wikipedia": "nl:Station Aalter"
  }
},
{
  "type": "node",
  "id": 867138069,
  "lat": 50.6735333,
  "lon": 4.5694838,
  "tags": {
    "name": "Ottignies",
    "name:nl": "Ottignies",
    "operator": "NMBS/SNCB",
    "public_transport": "station",
    "railway": "station",
    "railway:ref": "LT",
    "ref": "LT",
    "uic_ref": "8811601",
    "website": "http://www.belgianrail.be/fr/gares/recherche-gares/14/ottignies.aspx",
    "wheelchair": "limited",
    "wikidata": "Q2521322",
    "wikipedia": "fr:Gare d'Ottignies"
  }
},
{
  "type": "node",
  "id": 967026850,
  "lat": 51.0228312,
  "lon": 4.1008679,
  "tags": {
    "name": "Dendermonde",
    "name:fr": "Termonde",
    "operator": "NMBS/SNCB",
    "operator:wikidata": "Q524255",
    "public_transport": "station",
    "railway": "station",
    "railway:ref": "FDR",
    "train": "yes",
    "wikidata": "Q2426602",
    "wikipedia": "nl:Station Dendermonde"
  }
},
{
  "type": "node",
  "id": 1015981197,
  "lat": 51.3383069,
  "lon": 3.2635563,
  "tags": {
    "name": "Duinbergen",
    "operator": "NMBS/SNCB",
    "operator:wikidata": "Q524255",
    "public_transport": "station",
    "railway": "station",
    "railway:ref": "MUI",
    "wikidata": "Q2347428",
    "wikipedia": "nl:Station Duinbergen"
  }
},
{
  "type": "node",
  "id": 1015981231,
  "lat": 51.3398357,
  "lon": 3.2843232,
  "tags": {
    "name": "Knokke",
    "operator": "NMBS/SNCB",
    "operator:wikidata": "Q524255",
    "public_transport": "station",
    "railway": "station",
    "railway:ref": "FKK",
    "train": "yes",
    "wheelchair": "yes",
    "wikidata": "Q2785861",
    "wikipedia": "nl:Station Knokke"
  }
},
{
  "type": "node",
  "id": 1015988681,
  "lat": 51.3338987,
  "lon": 3.2391716,
  "tags": {
    "name": "Heist",
    "operator": "NMBS/SNCB",
    "operator:wikidata": "Q524255",
    "public_transport": "station",
    "railway": "station",
    "railway:ref": "FHI",
    "wikidata": "Q3096625",
    "wikipedia": "nl:Station Heist"
  }
},
{
  "type": "node",
  "id": 1016392118,
  "lat": 51.3264220,
  "lon": 3.1948891,
  "tags": {
    "name": "Zeebrugge-Dorp",
    "operator": "NMBS/SNCB",
    "operator:wikidata": "Q524255",
    "public_transport": "station",
    "railway": "station",
    "railway:ref": "LZE",
    "train": "yes",
    "wikidata": "Q339697",
    "wikipedia": "nl:Station Zeebrugge-Dorp"
  }
},
{
  "type": "node",
  "id": 1027979508,
  "lat": 51.2284322,
  "lon": 2.9262150,
  "tags": {
    "name": "Oostende",
    "operator": "NMBS/SNCB",
    "operator:wikidata": "Q524255",
    "public_transport": "station",
    "railway": "station",
    "railway:ref": "FSD",
    "train": "yes",
    "wheelchair": "yes",
    "wikidata": "Q2292734",
    "wikipedia": "nl:Station Oostende"
  }
},
{
  "type": "node",
  "id": 1054207092,
  "lat": 50.3229657,
  "lon": 5.0099454,
  "tags": {
    "name": "Spontin",
    "public_transport": "stop_position",
    "railway": "station",
    "ref": "1",
    "train": "yes"
  }
},
{
  "type": "node",
  "id": 1178257779,
  "lat": 51.0355237,
  "lon": 3.7107158,
  "tags": {
    "name": "Gent-Sint-Pieters",
    "name:fr": "Gand-Saint-Pierre",
    "operator": "NMBS/SNCB",
    "operator:wikidata": "Q524255",
    "platforms": "12",
    "public_transport": "station",
    "railway": "station",
    "railway:ref": "FGSP",
    "uic_ref": "8800031",
    "wheelchair": "limited",
    "wikidata": "Q800814",
    "wikipedia": "nl:Station Gent-Sint-Pieters"
  }
},
{
  "type": "node",
  "id": 1516414635,
  "lat": 51.3134658,
  "lon": 4.4327583,
  "tags": {
    "name": "Kapellen",
    "public_transport": "station",
    "railway": "station",
    "railway:ref": "LKP",
    "train": "yes",
    "wikidata": "Q1861733",
    "wikipedia": "nl:Station Kapellen"
  }
},
{
  "type": "node",
  "id": 1584951481,
  "lat": 50.9845000,
  "lon": 3.4185022,
  "tags": {
    "name": "Aarsele",
    "operator": "NMBS/SNCB",
    "operator:wikidata": "Q524255",
    "public_transport": "station",
    "railway": "station",
    "railway:ref": "FAR",
    "train": "yes",
    "wikidata": "Q2681247",
    "wikipedia": "nl:Station Aarsele"
  }
},
{
  "type": "node",
  "id": 1634330013,
  "lat": 51.3123397,
  "lon": 3.1339182,
  "tags": {
    "name": "Blankenberge",
    "operator": "NMBS/SNCB",
    "operator:wikidata": "Q524255",
    "public_transport": "station",
    "railway": "station",
    "railway:ref": "FBK",
    "train": "yes"
  }
},
{
  "type": "node",
  "id": 1640542561,
  "lat": 50.8684996,
  "lon": 5.5095108,
  "tags": {
    "description": "Station gesloten binnenkant, GEVAAR ASBEST",
    "internet_access": "no",
    "name": "Bilzen",
    "operator": "NMBS/SNCB",
    "operator:wikidata": "Q524255",
    "public_transport": "station",
    "railway": "station",
    "railway:ref": "FIE",
    "train": "yes",
    "wikidata": "Q742547",
    "wikipedia": "nl:Station Bilzen"
  }
},
{
  "type": "node",
  "id": 1782729462,
  "lat": 50.9211098,
  "lon": 3.2145318,
  "tags": {
    "name": "Izegem",
    "operator": "NMBS/SNCB",
    "operator:wikidata": "Q524255",
    "public_transport": "station",
    "railway": "station",
    "railway:ref": "LZG",
    "train": "yes",
    "wikidata": "Q3095810",
    "wikipedia": "nl:Station Izegem"
  }
},
{
  "type": "node",
  "id": 2033131286,
  "lat": 49.7182816,
  "lon": 5.6326364,
  "tags": {
    "name": "Habay",
    "name:de": "Habich",
    "name:lb": "Habay",
    "name:nl": "Habay",
    "operator": "NMBS/SNCB",
    "public_transport": "station",
    "railway": "station",
    "railway:ref": "MHB",
    "uic_ref": "8866142",
    "website": "http://www.belgianrail.be/fr/gares/recherche-gares/17/habay.aspx",
    "wikidata": "Q961508",
    "wikipedia": "fr:Gare de Habay"
  }
},
{
  "type": "node",
  "id": 2078764164,
  "lat": 51.2218575,
  "lon": 5.4372387,
  "tags": {
    "name": "Neerpelt",
    "operator:wikidata": "Q524255",
    "public_transport": "station",
    "railway": "station",
    "railway:ref": "LNP",
    "train": "yes",
    "uic_ref": "8832615",
    "website": "http://www.belgianrail.be/Station.ashx?lang=nl&stationId=8832615",
    "wikidata": "Q1925275",
    "wikipedia": "nl:Station Neerpelt"
  }
},
{
  "type": "node",
  "id": 2194362683,
  "lat": 50.8085093,
  "lon": 4.4001819,
  "tags": {
    "name": "Watermael - Watermaal",
    "name:fr": "Watermael",
    "name:nl": "Watermaal",
    "operator": "NMBS/SNCB",
    "public_transport": "station",
    "railway": "station",
    "railway:ref": "FW",
    "uic_ref": "8811429",
    "wikidata": "Q739090",
    "wikipedia": "fr:Gare de Watermael"
  }
},
{
  "type": "node",
  "id": 2203525892,
  "lat": 50.7382901,
  "lon": 4.4970994,
  "tags": {
    "name": "La Hulpe",
    "name:nl": "Terhulpen",
    "operator": "NMBS/SNCB",
    "public_transport": "station",
    "railway": "station",
    "railway:ref": "ML",
    "train": "yes",
    "uic_ref": "8811510",
    "website": "http://www.belgianrail.be/fr/gares/recherche-gares/14/la-hulpe.aspx",
    "wikidata": "Q3096793",
    "wikipedia": "fr:Gare de La Hulpe"
  }
},
{
  "type": "node",
  "id": 2235412281,
  "lat": 51.1809816,
  "lon": 4.8287340,
  "tags": {
    "name": "Herentals",
    "operator:wikidata": "Q524255",
    "public_transport": "station",
    "railway": "station",
    "railway:ref": "FHT",
    "train": "yes",
    "uic_ref": "8821717",
    "website": "http://www.belgianrail.be/Station.ashx?lang=nl&stationId=8821717",
    "wheelchair": "no",
    "wikidata": "Q2513386",
    "wikipedia": "nl:Station Herentals"
  }
},
{
  "type": "node",
  "id": 2343212512,
  "lat": 50.5705220,
  "lon": 5.5836790,
  "tags": {
    "name": "Tilff",
    "name:nl": "Tilff",
    "operator": "NMBS/SNCB",
    "public_transport": "station",
    "railway": "station",
    "railway:ref": "MTF",
    "uic_ref": "8842630",
    "website": "http://www.belgianrail.be/Station.ashx?lang=fr&stationId=8842630",
    "wikidata": "Q2441708",
    "wikipedia": "fr:Gare de Tilff"
  }
},
{
  "type": "node",
  "id": 2365572748,
  "lat": 50.7234085,
  "lon": 5.9128064,
  "tags": {
    "disused:railway": "station",
    "name": "Hombourg (History Park)",
    "operator": "History Park",
    "public_transport": "station",
    "railway": "station",
    "train": "yes",
    "website": "https://historypark.eu/"
  }
},
{
  "type": "node",
  "id": 2365928002,
  "lat": 50.7383248,
  "lon": 5.6923093,
  "tags": {
    "name": "Visé",
    "name:de": "Weset",
    "name:fr": "Visé",
    "name:nl": "Wezet",
    "name:wa": "Vizé",
    "operator": "NMBS/SNCB",
    "public_transport": "station",
    "railway": "station",
    "railway:ref": "FVS",
    "train": "yes",
    "uic_ref": "8846201",
    "website": "http://www.belgianrail.be/Station.ashx?lang=nl&stationId=8846201",
    "wheelchair": "no",
    "wikidata": "Q2354611"
  }
},
{
  "type": "node",
  "id": 2540120495,
  "lat": 50.6596575,
  "lon": 5.9754899,
  "tags": {
    "name": "Welkenraedt",
    "name:de": "Welkenrath",
    "name:nl": "Welkenraedt",
    "operator": "NMBS/SNCB",
    "public_transport": "station",
    "railway": "station",
    "railway:ref": "GWK",
    "uic_ref": "8844503",
    "website": "http://www.belgianrail.be/Station.ashx?lang=nl&stationId=8844503",
    "wheelchair": "yes",
    "wikidata": "Q2614479",
    "wikipedia": "fr:Gare de Welkenraedt"
  }
},
{
  "type": "node",
  "id": 2929614444,
  "lat": 51.1969806,
  "lon": 3.2172409,
  "tags": {
    "name": "Brugge",
    "operator": "NMBS/SNCB",
    "operator:wikidata": "Q524255",
    "platforms": "10",
    "public_transport": "station",
    "railway": "station",
    "railway:ref": "FR",
    "train": "yes",
    "uic_ref": "8800029",
    "wheelchair": "yes",
    "wikidata": "Q800580",
    "wikipedia": "nl:Station Brugge"
  }
},
{
  "type": "node",
  "id": 2981565078,
  "lat": 50.5681605,
  "lon": 5.8063587,
  "tags": {
    "name": "Pepinster",
    "name:nl": "Pepinster",
    "operator": "NMBS/SNCB",
    "public_transport": "station",
    "railway": "station",
    "railway:ref": "FPS",
    "train": "yes",
    "uic_ref": "8844206",
    "website": "http://www.belgianrail.be/Station.ashx?lang=fr&stationId=8844206",
    "wikidata": "Q2622077",
    "wikipedia": "fr:Gare de Pepinster"
  }
},
{
  "type": "node",
  "id": 3005610525,
  "lat": 50.7717486,
  "lon": 2.9985049,
  "tags": {
    "name": "Comines - Komen",
    "name:fr": "Comines",
    "name:nl": "Komen",
    "operator": "NMBS/SNCB",
    "public_transport": "station",
    "railway": "station",
    "railway:ref": "FOI",
    "train": "yes",
    "website": "http://www.belgianrail.be/fr/gares/recherche-gares/12/comines.aspx",
    "wikidata": "Q3096272",
    "wikipedia": "fr:Gare de Comines (Belgique)"
  }
},
{
  "type": "node",
  "id": 3009257603,
  "lat": 51.0252191,
  "lon": 3.1268061,
  "tags": {
    "name": "Lichtervelde",
    "operator": "NMBS/SNCB",
    "operator:wikidata": "Q524255",
    "public_transport": "station",
    "railway": "station",
    "railway:ref": "FLC",
    "train": "yes",
    "uic_ref": "8892205",
    "wikidata": "Q1925338"
  }
},
{
  "type": "node",
  "id": 3023557446,
  "lat": 50.9489228,
  "lon": 3.1304614,
  "tags": {
    "name": "Roeselare",
    "name:fr": "Roulers",
    "operator": "NMBS/SNCB",
    "operator:wikidata": "Q524255",
    "public_transport": "station",
    "railway": "station",
    "railway:ref": "FRL",
    "train": "yes",
    "uic_ref": "8896800",
    "wikidata": "Q516477",
    "wikipedia": "nl:Station Roeselare"
  }
},
{
  "type": "node",
  "id": 3028253065,
  "lat": 50.8917047,
  "lon": 3.4243419,
  "tags": {
    "name": "Waregem",
    "operator": "NMBS/SNCB",
    "operator:wikidata": "Q524255",
    "public_transport": "station",
    "railway": "station",
    "railway:ref": "FVG",
    "train": "yes",
    "uic_ref": "8896149",
    "wheelchair": "limited"
  }
},
{
  "type": "node",
  "id": 3047301202,
  "lat": 51.0201762,
  "lon": 3.7645867,
  "tags": {
    "name": "Merelbeke",
    "public_transport": "station",
    "railway": "station",
    "railway:ref": "FKR",
    "wikidata": "Q2680012",
    "wikipedia": "nl:Station Merelbeke"
  }
},
{
  "type": "node",
  "id": 3084588309,
  "lat": 51.0016172,
  "lon": 3.8824487,
  "tags": {
    "name": "Wetteren",
    "public_transport": "station",
    "railway": "station",
    "railway:ref": "FVT",
    "train": "yes",
    "wheelchair": "yes",
    "wikidata": "Q2252106"
  }
},
{
  "type": "node",
  "id": 3091116156,
  "lat": 51.0871630,
  "lon": 3.8798459,
  "tags": {
    "name": "Beervelde",
    "public_transport": "station",
    "railway": "station",
    "railway:ref": "FVB",
    "train": "yes",
    "wikidata": "Q3075755",
    "wikipedia": "nl:Station Beervelde"
  }
},
{
  "type": "node",
  "id": 3100467146,
  "lat": 51.0289212,
  "lon": 4.1788083,
  "tags": {
    "name": "Baasrode-Noord",
    "operator:wikidata": "Q524255",
    "railway": "station",
    "railway:ref": "LDR",
    "wikidata": "Q2043858",
    "wikipedia": "nl:Station Baasrode-Noord"
  }
},
{
  "type": "node",
  "id": 3100499396,
  "lat": 51.0515271,
  "lon": 4.2067001,
  "tags": {
    "disused:railway": "station",
    "name": "Sint-Amands",
    "public_transport": "station",
    "railway": "station",
    "railway:ref": "LSP",
    "wikidata": "Q1941108",
    "wikipedia": "nl:Station Sint-Amands"
  }
},
{
  "type": "node",
  "id": 3100526909,
  "lat": 51.0702824,
  "lon": 4.2451799,
  "tags": {
    "name": "Oppuurs",
    "public_transport": "station",
    "railway": "station",
    "railway:ref": "LPU",
    "wikidata": "Q2787342",
    "wikipedia": "nl:Station Oppuurs"
  }
},
{
  "type": "node",
  "id": 3117331553,
  "lat": 50.5362043,
  "lon": 5.8150624,
  "tags": {
    "name": "Theux",
    "operator": "NMBS/SNCB",
    "operator:wikidata": "Q524255",
    "public_transport": "station",
    "railway": "station",
    "railway:ref": "FTX",
    "toilets:wheelchair": "no",
    "train": "yes",
    "uic_ref": "8844339",
    "website": "http://www.belgianrail.be/Station.ashx?lang=fr&stationId=8844339",
    "wheelchair": "limited"
  }
},
{
  "type": "node",
  "id": 3266203405,
  "lat": 50.8454639,
  "lon": 4.3569867,
  "tags": {
    "bicycle": "no",
    "bicycle:description": "It is not allowed to mount or dismount bicycles on the train here.",
    "level": "0",
    "name": "Bruxelles-Central - Brussel-Centraal",
    "name:ar": "محطة بروكسل المركزية",
    "name:de": "Brüssel Zentralbahnhof",
    "name:en": "Brussels-Central",
    "name:fr": "Bruxelles-Central",
    "name:nl": "Brussel-Centraal",
    "name:ur": "برسلز شہر (سینٹرل)",
    "operator": "NMBS/SNCB",
    "public_transport": "station",
    "railway": "station",
    "railway:ref": "FBCL",
    "toilets:wheelchair": "yes",
    "uic_ref": "8813003",
    "website": "http://www.belgianrail.be/Station.ashx?lang=nl&stationId=8813003",
    "wheelchair": "limited",
    "wheelchair:description": "Most of the entries are OK, plus there's a lift inside. Some corridors and the access to the trains and to the metro aren't accessible.",
    "wikidata": "Q800588",
    "wikipedia": "fr:Gare de Bruxelles-Central"
  }
},
{
  "type": "node",
  "id": 3392485194,
  "lat": 51.0738368,
  "lon": 4.7085994,
  "tags": {
    "name": "Heist-op-den-Berg",
    "operator": "NMBS/SNCB",
    "operator:wikidata": "Q524255",
    "public_transport": "station",
    "railway": "station",
    "railway:ref": "GHO",
    "uic_ref": "8821832",
    "website": "http://www.belgianrail.be/Station.ashx?lang=nl&stationId=8821832",
    "wikidata": "Q2488076",
    "wikipedia": "nl:Station Heist-op-den-Berg"
  }
},
{
  "type": "node",
  "id": 3724964726,
  "lat": 51.3647922,
  "lon": 4.4605730,
  "tags": {
    "name": "Heide",
    "operator": "NMBS/SNCB",
    "operator:wikidata": "Q524255",
    "public_transport": "station",
    "railway": "station",
    "railway:ref": "MID",
    "train": "yes",
    "wikidata": "Q2455656",
    "wikipedia": "nl:Station Heide"
  }
},
{
  "type": "node",
  "id": 3829787373,
  "lat": 50.5851701,
  "lon": 3.8849961,
  "tags": {
    "name": "Gare du train à vapeur",
    "name:en": "Steam railway station",
    "name:nl": "Station stoomtrein",
    "network": "Privé",
    "operator": "Pairi Daiza",
    "railway": "station",
    "train": "yes",
    "usage": "tourism"
  }
},
{
  "type": "node",
  "id": 3833189777,
  "lat": 50.8783950,
  "lon": 4.3784579,
  "tags": {
    "name": "Schaerbeek - Schaarbeek",
    "name:fr": "Schaerbeek",
    "name:nl": "Schaarbeek",
    "old_name": "Schaerbeek-Voyageurs - Schaarbeek Reizigers",
    "operator": "NMBS/SNCB",
    "public_transport": "station",
    "railway": "station",
    "railway:ref": "FSR",
    "uic_ref": "8811007",
    "website": "http://www.belgianrail.be/Station.ashx?lang=nl&stationId=8811007",
    "wikidata": "Q801418",
    "wikipedia": "fr:Gare de Schaerbeek"
  }
},
{
  "type": "node",
  "id": 3887847332,
  "lat": 50.8382113,
  "lon": 4.3736635,
  "tags": {
    "name": "Bruxelles-Luxembourg - Brussel-Luxemburg",
    "name:de": "Brüssel-Luxemburg",
    "name:en": "Brussels-Luxembourg",
    "name:fr": "Bruxelles-Luxembourg",
    "name:nl": "Brussel-Luxemburg",
    "old_name": "Quartier-Léopold - Brussel-Leopoldswijk",
    "operator": "NMBS/SNCB",
    "public_transport": "station",
    "railway": "station",
    "railway:ref": "LX",
    "transport": "train",
    "uic_ref": "8811304",
    "wheelchair": "yes",
    "wikidata": "Q800583",
    "wikipedia": "fr:Gare de Bruxelles-Luxembourg"
  }
},
{
  "type": "node",
  "id": 4021608025,
  "lat": 50.5255053,
  "lon": 5.8224344,
  "tags": {
    "name": "Franchimont",
    "name:nl": "Franchimont",
    "operator": "NMBS/SNCB",
    "public_transport": "station",
    "railway": "station",
    "railway:ref": "FRO",
    "train": "yes",
    "uic_ref": "8844347",
    "website": "http://www.belgianrail.be/Station.ashx?lang=fr&stationId=8844347",
    "wikidata": "Q2679330",
    "wikipedia": "fr:Gare de Franchimont"
  }
},
{
  "type": "node",
  "id": 4021608030,
  "lat": 50.4901895,
  "lon": 5.8555258,
  "tags": {
    "name": "Spa",
    "name:nl": "Spa",
    "operator": "NMBS/SNCB",
    "public_transport": "station",
    "railway": "station",
    "railway:ref": "FSS",
    "uic_ref": "8844404",
    "website": "http://www.belgianrail.be/Station.ashx?lang=fr&stationId=8844404",
    "wikidata": "Q2337875",
    "wikipedia": "fr:Gare de Spa"
  }
},
{
  "type": "node",
  "id": 4021608031,
  "lat": 50.4892744,
  "lon": 5.8670106,
  "tags": {
    "name": "Spa-Géronstère",
    "name:nl": "Spa-Géronstère",
    "operator": "NMBS/SNCB",
    "public_transport": "station",
    "railway": "station",
    "railway:ref": "FSSG",
    "train": "yes",
    "uic_ref": "8844420",
    "website": "http://www.belgianrail.be/Station.ashx?lang=fr&stationId=8844420",
    "wikidata": "Q2560619",
    "wikipedia": "fr:Gare de Spa-Géronstère"
  }
},
{
  "type": "node",
  "id": 4333858841,
  "lat": 50.3691636,
  "lon": 5.8730278,
  "tags": {
    "name": "Trois-Ponts",
    "name:de": "Dreibrücken",
    "name:nl": "Trois-Ponts",
    "operator": "NMBS/SNCB",
    "public_transport": "station",
    "railway": "station",
    "railway:ref": "FNO",
    "uic_ref": "8845203",
    "website": "http://www.belgianrail.be/Station.ashx?lang=nl&stationId=8845203",
    "wikidata": "Q2256421",
    "wikipedia": "fr:Gare de Trois-Ponts"
  }
},
{
  "type": "node",
  "id": 4623339106,
  "lat": 51.4626799,
  "lon": 4.4511700,
  "tags": {
    "name": "Essen",
    "operator:wikidata": "Q524255",
    "platforms": "3",
    "public_transport": "station",
    "railway": "station",
    "railway:ref": "FES",
    "toilets:wheelchair": "yes",
    "train": "yes",
    "wheelchair": "limited",
    "wikidata": "Q2157270",
    "wikipedia": "nl:Station Essen"
  }
},
{
  "type": "node",
  "id": 4623344474,
  "lat": 51.3910924,
  "lon": 4.4666440,
  "tags": {
    "name": "Kalmthout",
    "operator": "NMBS/SNCB",
    "operator:wikidata": "Q524255",
    "public_transport": "station",
    "railway": "station",
    "railway:ref": "FKTH",
    "train": "yes",
    "wikidata": "Q2197004",
    "wikipedia": "nl:Station Kalmthout"
  }
},
{
  "type": "node",
  "id": 4623344475,
  "lat": 51.4276753,
  "lon": 4.4634184,
  "tags": {
    "name": "Wildert",
    "operator:wikidata": "Q524255",
    "public_transport": "station",
    "railway": "station",
    "railway:ref": "GWD",
    "train": "yes",
    "uic_ref": "8821436",
    "wikidata": "Q2216154",
    "wikipedia": "nl:Station Wildert"
  }
},
{
  "type": "node",
  "id": 4623345362,
  "lat": 51.2907893,
  "lon": 4.4351343,
  "tags": {
    "name": "Sint-Mariaburg",
    "operator": "NMBS/SNCB",
    "operator:wikidata": "Q524255",
    "public_transport": "station",
    "railway": "station",
    "railway:ref": "GSM",
    "train": "yes",
    "wikidata": "Q1865600",
    "wikipedia": "nl:Station Sint-Mariaburg"
  }
},
{
  "type": "node",
  "id": 4623345363,
  "lat": 51.3791307,
  "lon": 4.4673221,
  "tags": {
    "name": "Kijkuit",
    "public_transport": "station",
    "railway": "station",
    "railway:ref": "GKT",
    "train": "yes",
    "wikidata": "Q2844115"
  }
},
{
  "type": "node",
  "id": 4623345562,
  "lat": 51.2817684,
  "lon": 4.4343360,
  "tags": {
    "name": "Ekeren",
    "operator:wikidata": "Q524255",
    "public_transport": "station",
    "railway": "station",
    "railway:ref": "LKR",
    "wheelchair": "yes",
    "wikidata": "Q2202866",
    "wikipedia": "nl:Station Ekeren"
  }
},
{
  "type": "node",
  "id": 4818893881,
  "lat": 50.6581680,
  "lon": 4.1018492,
  "tags": {
    "name": "Bloc U",
    "operator": "Le Rail Rebecq-Rognon",
    "public_transport": "stop_position",
    "railway": "station",
    "train": "private",
    "usage": "tourism"
  }
},
{
  "type": "node",
  "id": 5041130444,
  "lat": 50.6697120,
  "lon": 4.6160384,
  "tags": {
    "addr:street": "Gallerie des Halles",
    "name": "Louvain-la-Neuve",
    "operator": "NMBS/SNCB",
    "platforms": "3",
    "public_transport": "station",
    "railway": "station",
    "railway:ref": "LNO",
    "ref": "LNO",
    "train": "yes",
    "uic_ref": "8811676",
    "url": "http://hari.b-rail.be/infsta/InfoStation.aspx?StationId=1000762&lang=0",
    "website": "http://www.belgianrail.be/fr/gares/recherche-gares/14/louvain-la-neuve-universite.aspx",
    "wheelchair": "yes",
    "wikidata": "Q2681097",
    "wikipedia": "fr:Gare de Louvain-la-Neuve"
  }
},
{
  "type": "node",
  "id": 5117245255,
  "lat": 49.5639089,
  "lon": 5.8292864,
  "tags": {
    "name": "Athus",
    "operator": "NMBS/SNCB",
    "operator:wikidata": "Q524255",
    "public_transport": "station",
    "railway": "station",
    "railway:ref": "MH",
    "uic_ref": "8866605",
    "wheelchair": "limited",
    "wikidata": "Q2194045"
  }
},
{
  "type": "node",
  "id": 5236690424,
  "lat": 51.1632038,
  "lon": 4.4951029,
  "tags": {
    "name": "Boechout",
    "public_transport": "station",
    "railway": "station",
    "railway:ref": "GBC",
    "train": "yes",
    "uic_ref": "8821634",
    "website": "http://www.belgianrail.be/Station.ashx?lang=nl&stationId=8821634",
    "wikidata": "Q2073294",
    "wikipedia": "nl:Station Boechout"
  }
},
{
  "type": "node",
  "id": 5236691811,
  "lat": 51.1597466,
  "lon": 4.6665642,
  "tags": {
    "name": "Nijlen",
    "operator:wikidata": "Q524255",
    "public_transport": "station",
    "railway": "station",
    "railway:ref": "FJE",
    "uic_ref": "8821667",
    "website": "http://www.belgianrail.be/Station.ashx?lang=nl&stationId=8821667",
    "wikidata": "Q2462335",
    "wikipedia": "nl:Station Nijlen"
  }
},
{
  "type": "node",
  "id": 5236691898,
  "lat": 51.1656586,
  "lon": 4.7462187,
  "tags": {
    "name": "Bouwel",
    "public_transport": "station",
    "railway": "station",
    "railway:ref": "FOW",
    "train": "yes",
    "uic_ref": "8821725",
    "website": "http://www.belgianrail.be/Station.ashx?lang=nl&stationId=8821725",
    "wikidata": "Q2846933"
  }
},
{
  "type": "node",
  "id": 5236693738,
  "lat": 51.1685644,
  "lon": 4.7850797,
  "tags": {
    "name": "Wolfstee",
    "public_transport": "station",
    "railway": "station",
    "railway:ref": "LWO",
    "train": "yes",
    "uic_ref": "8821709",
    "website": "http://www.belgianrail.be/Station.ashx?lang=nl&stationId=8821709",
    "wikidata": "Q2297802"
  }
},
{
  "type": "node",
  "id": 5307127700,
  "lat": 50.6247280,
  "lon": 5.5670650,
  "tags": {
    "addr:city": "Liège",
    "addr:housename": "Gare de Liège-Guillemins",
    "addr:housenumber": "2",
    "addr:postcode": "4000",
    "addr:street": "Place des Guillemins",
    "alt_name": "Gare des Guillemins",
    "name": "Liège-Guillemins",
    "name:fr": "Liège-Guillemins",
    "name:nl": "Luik-Guillemins",
    "name:ru": "Льеж-Гийиен",
    "name:uk": "Льєж-Гіймен",
    "network": "NMBS/SNCB",
    "operator": "NMBS/SNCB",
    "platforms": "9",
    "public_transport": "station",
    "railway": "station",
    "railway:ref": "FL",
    "train": "yes",
    "uic_ref": "8841004",
    "website": "http://www.belgianrail.be/Station.ashx?lang=fr&stationId=8841004",
    "wheelchair": "yes"
  }
},
{
  "type": "node",
  "id": 5334823333,
  "lat": 50.8078688,
  "lon": 4.9261879,
  "tags": {
    "name": "Tienen",
    "name:fr": "Tirlemont",
    "operator": "NMBS/SNCB",
    "operator:wikidata": "Q524255",
    "public_transport": "station",
    "railway": "station",
    "railway:ref": "FTNN",
    "train": "yes",
    "uic_ref": "8833308",
    "website": "http://www.belgianrail.be/Station.ashx?lang=nl&stationId=8833308",
    "wikidata": "Q1966021",
    "wikipedia": "nl:Station Tienen"
  }
},
{
  "type": "node",
  "id": 5368442765,
  "lat": 50.6444511,
  "lon": 5.6131398,
  "tags": {
    "name": "Bressoux",
    "name:nl": "Bressoux",
    "operator": "NMBS/SNCB",
    "public_transport": "station",
    "railway": "station",
    "railway:ref": "FBX",
    "train": "yes",
    "uic_ref": "8843901",
    "website": "http://www.belgianrail.be/Station.ashx?lang=nl&stationId=8843901",
    "wikidata": "Q2229337"
  }
},
{
  "type": "node",
  "id": 5370990582,
  "lat": 50.6075422,
  "lon": 5.6173528,
  "tags": {
    "name": "Chênée",
    "name:nl": "Chênée",
    "operator": "NMBS/SNCB",
    "public_transport": "station",
    "railway": "station",
    "railway:ref": "FCH",
    "train": "yes",
    "uic_ref": "8842036",
    "website": "http://www.belgianrail.be/Station.ashx?lang=nl&stationId=8842036",
    "wikidata": "Q2463355",
    "wikipedia": "fr:Gare de Chênée"
  }
},
{
  "type": "node",
  "id": 5370990616,
  "lat": 50.6131219,
  "lon": 5.5986796,
  "tags": {
    "name": "Angleur",
    "name:nl": "Angleur",
    "operator": "NMBS/SNCB",
    "public_transport": "station",
    "railway": "station",
    "train": "yes",
    "uic_ref": "8842002",
    "website": "http://www.belgianrail.be/fr/gares/recherche-gares/15/angleur.aspx",
    "wheelchair": "no",
    "wikidata": "Q601108",
    "wikipedia": "fr:Gare d'Angleur"
  }
},
{
  "type": "node",
  "id": 5391076209,
  "lat": 51.1358421,
  "lon": 4.5619531,
  "tags": {
    "name": "Lier",
    "name:fr": "Lierre",
    "operator": "NMBS/SNCB",
    "public_transport": "station",
    "railway": "station",
    "railway:ref": "FLR",
    "train": "yes",
    "uic_ref": "8821600",
    "website": "http://www.belgianrail.be/Station.ashx?lang=nl&stationId=8821600"
  }
},
{
  "type": "node",
  "id": 5435074763,
  "lat": 50.5446963,
  "lon": 5.8099838,
  "tags": {
    "name": "Juslenville",
    "name:nl": "Juslenville",
    "operator": "NMBS/SNCB",
    "public_transport": "station",
    "railway": "station",
    "railway:ref": "FJL",
    "train": "yes",
    "uic_ref": "8844321",
    "website": "http://www.belgianrail.be/Station.ashx?lang=fr&stationId=8844321",
    "wikidata": "Q2886515",
    "wikipedia": "fr:Gare de Juslenville"
  }
},
{
  "type": "node",
  "id": 5450310126,
  "lat": 50.1896189,
  "lon": 5.9540191,
  "tags": {
    "name": "Gouvy",
    "name:de": "Geilich",
    "name:lb": "Gouvy",
    "name:nl": "Gouvy",
    "operator": "NMBS/SNCB",
    "public_transport": "station",
    "railway": "station",
    "railway:ref": "FVI",
    "train": "yes",
    "uic_ref": "8845005",
    "website": "http://www.belgianrail.be/Station.ashx?lang=nl&stationId=8845005",
    "wheelchair": "yes",
    "wikidata": "Q3096564",
    "wikipedia": "fr:Gare de Gouvy"
  }
},
{
  "type": "node",
  "id": 5450310140,
  "lat": 50.2787325,
  "lon": 5.9095207,
  "tags": {
    "name": "Vielsalm",
    "name:nl": "Vielsalm",
    "operator": "NMBS/SNCB",
    "public_transport": "station",
    "railway": "station",
    "railway:ref": "FVI",
    "train": "yes",
    "uic_ref": "8845146",
    "website": "http://www.belgianrail.be/Station.ashx?lang=nl&stationId=8845146",
    "wikidata": "Q3097974",
    "wikipedia": "fr:Gare de Vielsalm"
  }
},
{
  "type": "node",
  "id": 5450434202,
  "lat": 50.2839828,
  "lon": 5.4409722,
  "tags": {
    "name": "Melreux-Hotton",
    "name:nl": "Melreux-Hotton",
    "operator": "NMBS/SNCB",
    "public_transport": "station",
    "railway": "station",
    "railway:ref": "MLR",
    "train": "yes",
    "website": "http://www.belgianrail.be/Station.ashx?lang=fr&stationId=8864436",
    "wikidata": "Q2044362",
    "wikipedia": "fr:Gare de Melreux-Hotton"
  }
},
{
  "type": "node",
  "id": 5450440093,
  "lat": 50.2025003,
  "lon": 5.3139556,
  "tags": {
    "name": "Marloie",
    "name:nl": "Marloie",
    "operator": "NMBS/SNCB",
    "public_transport": "station",
    "railway": "station",
    "railway:ref": "MML",
    "train": "yes",
    "uic_ref": "8864345",
    "website": "http://www.belgianrail.be/Station.ashx?lang=fr&stationId=8864345",
    "wikidata": "Q2456324",
    "wikipedia": "fr:Gare de Marloie"
  }
},
{
  "type": "node",
  "id": 5450587661,
  "lat": 50.3768695,
  "lon": 5.5195859,
  "tags": {
    "name": "Bomal",
    "name:lb": "Bomal",
    "name:nl": "Bomal",
    "operator": "NMBS/SNCB",
    "public_transport": "station",
    "railway": "station",
    "railway:ref": "MBM",
    "train": "yes",
    "website": "http://www.belgianrail.be/Station.ashx?lang=fr&stationId=8864469",
    "wikidata": "Q2596555",
    "wikipedia": "fr:Gare de Bomal"
  }
},
{
  "type": "node",
  "id": 5450678272,
  "lat": 50.4287902,
  "lon": 5.5339242,
  "tags": {
    "name": "Hamoir",
    "name:nl": "Hamoir",
    "operator": "NMBS/SNCB",
    "public_transport": "station",
    "railway": "station",
    "railway:ref": "LHM",
    "train": "yes",
    "website": "http://www.belgianrail.be/fr/gares/recherche-gares/17/hamoir.aspx",
    "wikidata": "Q2733445",
    "wikipedia": "fr:Gare de Hamoir"
  }
},
{
  "type": "node",
  "id": 5450896270,
  "lat": 50.5305140,
  "lon": 5.5728296,
  "tags": {
    "name": "Esneux",
    "name:nl": "Esneux",
    "operator": "NMBS/SNCB",
    "public_transport": "station",
    "railway": "station",
    "railway:ref": "LSN",
    "train": "yes",
    "website": "http://www.belgianrail.be/Station.ashx?lang=fr&stationId=8842663",
    "wikidata": "Q2604456",
    "wikipedia": "fr:Gare d'Esneux"
  }
},
{
  "type": "node",
  "id": 5450903203,
  "lat": 50.4860898,
  "lon": 5.5855410,
  "tags": {
    "name": "Rivage",
    "name:lb": "Rivage",
    "name:nl": "Rivage",
    "operator": "NMBS/SNCB",
    "public_transport": "station",
    "railway": "station",
    "railway:ref": "MRV",
    "train": "yes",
    "website": "http://www.belgianrail.be/Station.ashx?lang=fr&stationId=8842705",
    "wikidata": "Q2210608",
    "wikipedia": "fr:Gare de Rivage"
  }
},
{
  "type": "node",
  "id": 5451456278,
  "lat": 50.6464988,
  "lon": 5.5709122,
  "tags": {
    "name": "Liège-Saint-Lambert",
    "name:de": "Lüttich-Sint-Lambert",
    "name:nl": "Luik-Sint-Lambert",
    "old_name": "Liège-Palais",
    "operator": "NMBS/SNCB",
    "public_transport": "station",
    "railway": "station",
    "railway:ref": "FLGP",
    "train": "yes",
    "uic_ref": "8841525",
    "website": "http://www.belgianrail.be/fr/gares/recherche-gares/15/liege-palais.aspx",
    "wheelchair": "no",
    "wikidata": "Q739816",
    "wikipedia": "fr:Gare de Liège-Saint-Lambert"
  }
},
{
  "type": "node",
  "id": 5451456298,
  "lat": 50.6607262,
  "lon": 5.6229797,
  "tags": {
    "name": "Herstal",
    "name:nl": "Herstal",
    "operator": "NMBS/SNCB",
    "public_transport": "station",
    "railway": "station",
    "railway:ref": "LHS",
    "train": "yes",
    "uic_ref": "8841608",
    "website": "http://www.belgianrail.be/fr/gares/recherche-gares/15/herstal.aspx",
    "wikidata": "Q2249000",
    "wikipedia": "fr:Gare de Herstal"
  }
},
{
  "type": "node",
  "id": 5451456319,
  "lat": 50.6981667,
  "lon": 5.5690642,
  "tags": {
    "name": "Liers",
    "name:nl": "Liers",
    "operator": "NMBS/SNCB",
    "public_transport": "station",
    "railway": "station",
    "railway:ref": "LSL",
    "train": "yes",
    "uic_ref": "8841673",
    "website": "http://www.belgianrail.be/fr/gares/recherche-gares/15/liers.aspx",
    "wikidata": "Q2066548",
    "wikipedia": "fr:Gare de Liers"
  }
},
{
  "type": "node",
  "id": 5451889159,
  "lat": 50.7840282,
  "lon": 5.4735866,
  "tags": {
    "name": "Tongeren",
    "name:de": "Tongern",
    "name:fr": "Tongres",
    "name:nl": "Tongeren",
    "name:wa": "Tongres",
    "operator": "NMBS/SNCB",
    "operator:wikidata": "Q524255",
    "public_transport": "station",
    "railway": "station",
    "railway:ref": "FTG",
    "train": "yes",
    "wikidata": "Q681688",
    "wikipedia": "nl:Station Tongeren"
  }
},
{
  "type": "node",
  "id": 5454793748,
  "lat": 50.9309341,
  "lon": 5.3275497,
  "tags": {
    "name": "Hasselt",
    "operator": "NMBS/SNCB",
    "operator:wikidata": "Q524255",
    "public_transport": "station",
    "railway": "station",
    "railway:ref": "FHS",
    "train": "yes",
    "wheelchair": "limited",
    "wikidata": "Q534987",
    "wikipedia": "nl:Station Hasselt"
  }
},
{
  "type": "node",
  "id": 5455051620,
  "lat": 50.8867147,
  "lon": 5.2925362,
  "tags": {
    "name": "Alken",
    "public_transport": "station",
    "railway": "station",
    "train": "yes",
    "wheelchair": "no",
    "wikidata": "Q4714536"
  }
},
{
  "type": "node",
  "id": 5455053023,
  "lat": 50.8172129,
  "lon": 5.1759902,
  "tags": {
    "name": "Sint-Truiden",
    "operator:wikidata": "Q524255",
    "public_transport": "station",
    "railway": "station",
    "railway:ref": "FST",
    "train": "yes",
    "wheelchair": "yes",
    "wikidata": "Q2055506",
    "wikipedia": "nl:Station Sint-Truiden"
  }
},
{
  "type": "node",
  "id": 5455053029,
  "lat": 50.7479715,
  "lon": 5.0800985,
  "tags": {
    "name": "Landen",
    "operator": "NMBS/SNCB",
    "operator:wikidata": "Q524255",
    "public_transport": "station",
    "railway": "station",
    "railway:ref": "FLD",
    "train": "yes",
    "uic_ref": "8833605",
    "website": "http://www.belgianrail.be/Station.ashx?lang=nl&stationId=8833605",
    "wikidata": "Q2251844",
    "wikipedia": "nl:Station Landen"
  }
},
{
  "type": "node",
  "id": 5465245211,
  "lat": 50.9641149,
  "lon": 5.1856287,
  "tags": {
    "name": "Schulen",
    "operator": "NMBS/SNCB",
    "operator:wikidata": "Q524255",
    "public_transport": "station",
    "railway": "station",
    "railway:ref": "GSU",
    "train": "yes",
    "wikidata": "Q2958031",
    "wikipedia": "nl:Station Schulen"
  }
},
{
  "type": "node",
  "id": 5467705840,
  "lat": 51.0024869,
  "lon": 4.8637488,
  "tags": {
    "name": "Langdorp",
    "operator:wikidata": "Q524255",
    "public_transport": "station",
    "railway": "station",
    "railway:ref": "LGD",
    "train": "yes",
    "wikidata": "Q1848026",
    "wikipedia": "nl:Station Langdorp"
  }
},
{
  "type": "node",
  "id": 5467705856,
  "lat": 51.0097709,
  "lon": 4.9469085,
  "tags": {
    "name": "Testelt",
    "name:ru": "Тестелт",
    "operator:wikidata": "Q524255",
    "public_transport": "station",
    "railway": "station",
    "railway:ref": "GTT",
    "train": "yes",
    "wikidata": "Q3097851",
    "wikipedia": "nl:Station Testelt"
  }
},
{
  "type": "node",
  "id": 5467705869,
  "lat": 51.0063866,
  "lon": 4.9883490,
  "tags": {
    "name": "Zichem",
    "operator:wikidata": "Q524255",
    "public_transport": "station",
    "railway": "station",
    "railway:ref": "GZC",
    "train": "yes",
    "wikidata": "Q3098109",
    "wikipedia": "nl:Station Zichem"
  }
},
{
  "type": "node",
  "id": 5467705903,
  "lat": 50.9930532,
  "lon": 5.0511119,
  "tags": {
    "name": "Diest",
    "public_transport": "station",
    "railway": "station",
    "train": "yes",
    "wikidata": "Q2615724",
    "wikipedia": "nl:Station Diest"
  }
},
{
  "type": "node",
  "id": 5467940340,
  "lat": 50.9564078,
  "lon": 4.7481188,
  "tags": {
    "name": "Wezemaal",
    "operator": "NMBS/SNCB",
    "operator:wikidata": "Q524255",
    "public_transport": "station",
    "railway": "station",
    "railway:ref": "LWZ",
    "train": "yes",
    "wikidata": "Q3098079",
    "wikipedia": "nl:Station Wezemaal"
  }
},
{
  "type": "node",
  "id": 5467940363,
  "lat": 50.9844425,
  "lon": 4.8240803,
  "tags": {
    "name": "Aarschot",
    "name:fr": "Aerschot",
    "operator:wikidata": "Q524255",
    "public_transport": "station",
    "railway": "station",
    "railway:ref": "FRST",
    "train": "yes",
    "wikidata": "Q2399238",
    "wikipedia": "nl:Station Aarschot"
  }
},
{
  "type": "node",
  "id": 5467988372,
  "lat": 50.8813454,
  "lon": 4.7156480,
  "tags": {
    "name": "Leuven",
    "name:fr": "Louvain",
    "operator": "NMBS/SNCB",
    "operator:wikidata": "Q524255",
    "public_transport": "station",
    "railway": "station",
    "railway:ref": "FLV",
    "toilets:wheelchair": "no",
    "train": "yes",
    "uic_ref": "8833001",
    "website": "http://www.belgianrail.be/Station.ashx?lang=nl&stationId=8833001",
    "wheelchair": "yes",
    "wikidata": "Q801090",
    "wikipedia": "nl:Station Leuven"
  }
},
{
  "type": "node",
  "id": 5528806498,
  "lat": 50.9669601,
  "lon": 5.4963483,
  "tags": {
    "name": "Genk",
    "public_transport": "station",
    "railway": "station",
    "railway:ref": "FKG",
    "train": "yes",
    "wheelchair": "yes",
    "wikidata": "Q2930117",
    "wikipedia": "nl:Station Genk"
  }
},
{
  "type": "node",
  "id": 5543493727,
  "lat": 51.0372737,
  "lon": 4.7735274,
  "tags": {
    "name": "Booischot",
    "operator": "NMBS/SNCB",
    "operator:wikidata": "Q524255",
    "public_transport": "station",
    "railway": "station",
    "railway:ref": "GB",
    "train": "yes",
    "uic_ref": "8821857",
    "website": "http://www.belgianrail.be/Station.ashx?lang=nl&stationId=8821857",
    "wikidata": "Q1993758",
    "wikipedia": "nl:Station Booischot"
  }
},
{
  "type": "node",
  "id": 5543493747,
  "lat": 51.0226822,
  "lon": 4.7992417,
  "tags": {
    "name": "Begijnendijk",
    "operator": "NMBS/SNCB",
    "operator:wikidata": "Q524255",
    "public_transport": "station",
    "railway": "station",
    "railway:ref": "GBD",
    "train": "yes",
    "uic_ref": "8821865",
    "website": "http://www.belgianrail.be/Station.ashx?lang=nl&stationId=8821865",
    "wikidata": "Q2468390",
    "wikipedia": "nl:Station Begijnendijk"
  }
},
{
  "type": "node",
  "id": 5543574057,
  "lat": 51.1134905,
  "lon": 4.6388242,
  "tags": {
    "name": "Berlaar",
    "public_transport": "station",
    "railway": "station",
    "railway:ref": "GBL",
    "train": "yes",
    "uic_ref": "8821816",
    "website": "http://www.belgianrail.be/Station.ashx?lang=nl&stationId=8821816",
    "wikidata": "Q2243397",
    "wikipedia": "nl:Station Berlaar"
  }
},
{
  "type": "node",
  "id": 5543574065,
  "lat": 51.0947001,
  "lon": 4.6719830,
  "tags": {
    "name": "Melkouwen",
    "public_transport": "station",
    "railway": "station",
    "railway:ref": "MWC",
    "train": "yes",
    "uic_ref": "8821824",
    "website": "http://www.belgianrail.be/Station.ashx?lang=nl&stationId=8821824",
    "wikidata": "Q1911395"
  }
},
{
  "type": "node",
  "id": 5546029861,
  "lat": 51.2156208,
  "lon": 5.4241897,
  "tags": {
    "name": "Overpelt",
    "operator": "NMBS/SNCB",
    "operator:wikidata": "Q524255",
    "public_transport": "station",
    "railway": "station",
    "railway:ref": "GOV",
    "train": "yes",
    "uic_ref": "8832573",
    "website": "http://www.belgianrail.be/Station.ashx?lang=nl&stationId=8832573",
    "wikidata": "Q2673121",
    "wikipedia": "nl:Station Overpelt"
  }
},
{
  "type": "node",
  "id": 5546029881,
  "lat": 51.2461291,
  "lon": 5.5425301,
  "tags": {
    "name": "Hamont",
    "operator": "NMBS/SNCB",
    "operator:wikidata": "Q524255",
    "public_transport": "station",
    "railway": "station",
    "railway:ref": "GHA",
    "train": "yes",
    "uic_ref": "8832664",
    "website": "http://www.belgianrail.be/Station.ashx?lang=nl&stationId=8832664",
    "wikidata": "Q2386018",
    "wikipedia": "nl:Station Hamont"
  }
},
{
  "type": "node",
  "id": 5548769849,
  "lat": 51.1905976,
  "lon": 5.1145128,
  "tags": {
    "name": "Mol",
    "public_transport": "station",
    "railway": "station",
    "railway:ref": "LML",
    "train": "yes",
    "uic_ref": "8832409",
    "website": "http://www.belgianrail.be/Station.ashx?lang=nl&stationId=8832409",
    "wheelchair": "yes",
    "wikidata": "Q2189072",
    "wikipedia": "nl:Station Mol"
  }
},
{
  "type": "node",
  "id": 5548769877,
  "lat": 51.2116272,
  "lon": 5.3119934,
  "tags": {
    "name": "Lommel",
    "operator": "NMBS/SNCB",
    "operator:wikidata": "Q524255",
    "public_transport": "station",
    "railway": "station",
    "railway:ref": "LOL",
    "train": "yes",
    "uic_ref": "8832565",
    "website": "http://www.belgianrail.be/Station.ashx?lang=nl&stationId=8832565",
    "wikidata": "Q1981771",
    "wikipedia": "nl:Station Lommel"
  }
},
{
  "type": "node",
  "id": 5550976744,
  "lat": 51.1173328,
  "lon": 5.2580336,
  "tags": {
    "name": "Leopoldsburg",
    "public_transport": "station",
    "railway": "station",
    "railway:ref": "LBG",
    "train": "yes",
    "uic_ref": "8832003",
    "website": "http://www.belgianrail.be/Station.ashx?lang=nl&stationId=8832003",
    "wikidata": "Q2459980",
    "wikipedia": "nl:Station Leopoldsburg"
  }
},
{
  "type": "node",
  "id": 5560033966,
  "lat": 51.1690147,
  "lon": 4.9895239,
  "tags": {
    "name": "Geel",
    "public_transport": "station",
    "railway": "station",
    "railway:ref": "LG",
    "train": "yes",
    "uic_ref": "8832433",
    "website": "http://www.belgianrail.be/Station.ashx?lang=nl&stationId=8832433",
    "wheelchair": "yes",
    "wikidata": "Q2453559"
  }
},
{
  "type": "node",
  "id": 5562750103,
  "lat": 51.1740680,
  "lon": 4.9021179,
  "tags": {
    "name": "Olen",
    "operator": "NMBS/SNCB",
    "operator:wikidata": "Q524255",
    "public_transport": "station",
    "railway": "station",
    "railway:ref": "GOL",
    "train": "yes",
    "uic_ref": "8832458",
    "website": "http://www.belgianrail.be/Station.ashx?lang=nl&stationId=8832458",
    "wheelchair": "limited",
    "wikidata": "Q14386812",
    "wikipedia": "nl:Station Olen"
  }
},
{
  "type": "node",
  "id": 5564945148,
  "lat": 51.1508801,
  "lon": 4.6179673,
  "tags": {
    "name": "Kessel",
    "public_transport": "station",
    "railway": "station",
    "railway:ref": "LEK",
    "train": "yes",
    "uic_ref": "8821659",
    "website": "http://www.belgianrail.be/Station.ashx?lang=nl&stationId=8821659",
    "wikidata": "Q13641258"
  }
},
{
  "type": "node",
  "id": 5632288792,
  "lat": 51.3227241,
  "lon": 4.9378811,
  "tags": {
    "name": "Turnhout",
    "public_transport": "station",
    "railway": "station",
    "railway:ref": "FTR",
    "train": "yes",
    "uic_ref": "8821907",
    "website": "http://www.belgianrail.be/Station.ashx?lang=nl&stationId=8821907"
  }
},
{
  "type": "node",
  "id": 5632289465,
  "lat": 51.2419281,
  "lon": 4.8944454,
  "tags": {
    "name": "Tielen",
    "name:ru": "Тилен",
    "old_name": "Thielen",
    "operator": "NMBS/SNCB",
    "operator:wikidata": "Q524255",
    "public_transport": "station",
    "railway": "station",
    "railway:ref": "FTL",
    "train": "yes",
    "uic_ref": "8821964",
    "website": "http://www.belgianrail.be/Station.ashx?lang=nl&stationId=8821964",
    "wikidata": "Q4583672",
    "wikipedia": "nl:Station Tielen"
  }
},
{
  "type": "node",
  "id": 5639369117,
  "lat": 50.7130451,
  "lon": 4.5313534,
  "tags": {
    "name": "Rixensart",
    "name:fr": "Rixensart",
    "name:nl": "Rixensart",
    "operator": "NMBS/SNCB",
    "public_transport": "station",
    "railway": "station",
    "railway:ref": "MRX",
    "train": "yes",
    "uic_ref": "8811536",
    "website": "http://www.belgianrail.be/fr/gares/recherche-gares/14/rixensart.aspx",
    "wikidata": "Q2026879",
    "wikipedia": "fr:Gare de Rixensart"
  }
},
{
  "type": "node",
  "id": 5642377321,
  "lat": 50.5944698,
  "lon": 5.4564323,
  "tags": {
    "name": "Flémalle-Haute",
    "name:nl": "Flémalle-Haute",
    "operator": "NMBS/SNCB",
    "public_transport": "station",
    "railway": "station",
    "railway:ref": "LFH",
    "train": "yes",
    "uic_ref": "8843208",
    "website": "http://www.belgianrail.be/Station.ashx?lang=fr&stationId=8843208",
    "wikidata": "Q2316410",
    "wikipedia": "fr:Gare de Flémalle-Haute"
  }
},
{
  "type": "node",
  "id": 5642377434,
  "lat": 50.6186268,
  "lon": 5.4984853,
  "tags": {
    "name": "Jemeppe-sur-Meuse",
    "name:nl": "Jemeppe-sur-Meuse",
    "operator": "NMBS/SNCB",
    "public_transport": "station",
    "railway": "station",
    "railway:ref": "FJU",
    "train": "yes",
    "uic_ref": "8843158",
    "website": "http://www.belgianrail.be/Station.ashx?lang=fr&stationId=8843158",
    "wikidata": "Q1906418",
    "wikipedia": "fr:Gare de Jemeppe-sur-Meuse"
  }
},
{
  "type": "node",
  "id": 5644012757,
  "lat": 50.5827608,
  "lon": 5.4024773,
  "tags": {
    "name": "Engis",
    "name:nl": "Engis",
    "operator": "NMBS/SNCB",
    "public_transport": "station",
    "railway": "station",
    "railway:ref": "NG",
    "train": "yes",
    "uic_ref": "8843240",
    "website": "http://www.belgianrail.be/Station.ashx?lang=fr&stationId=8843240",
    "wheelchair": "yes",
    "wikidata": "Q3095739",
    "wikipedia": "fr:Gare d'Engis"
  }
},
{
  "type": "node",
  "id": 5644362279,
  "lat": 50.5460435,
  "lon": 5.3207698,
  "tags": {
    "name": "Amay",
    "name:nl": "Amay",
    "operator": "NMBS/SNCB",
    "public_transport": "station",
    "railway": "station",
    "railway:ref": "NM",
    "train": "yes",
    "uic_ref": "8843331",
    "website": "http://www.belgianrail.be/Station.ashx?lang=fr&stationId=8843331",
    "wikidata": "Q3088711",
    "wikipedia": "fr:Gare d'Amay"
  }
},
{
  "type": "node",
  "id": 5644508194,
  "lat": 50.5278461,
  "lon": 5.2209811,
  "tags": {
    "name": "Statte",
    "name:nl": "Statte",
    "operator": "NMBS/SNCB",
    "public_transport": "station",
    "railway": "station",
    "railway:ref": "LHY",
    "train": "yes",
    "uic_ref": "8843406",
    "website": "http://www.belgianrail.be/Station.ashx?lang=fr&stationId=8843406",
    "wheelchair": "no",
    "wikidata": "Q2229980",
    "wikipedia": "fr:Gare de Statte"
  }
},
{
  "type": "node",
  "id": 5644510035,
  "lat": 50.5267332,
  "lon": 5.2330408,
  "tags": {
    "name": "Huy",
    "name:nl": "Hoei",
    "operator": "NMBS/SNCB",
    "public_transport": "station",
    "railway": "station",
    "railway:ref": "LY",
    "train": "yes",
    "uic_ref": "8843307",
    "website": "http://www.belgianrail.be/Station.ashx?lang=fr&stationId=8843307",
    "wikidata": "Q2187214",
    "wikipedia": "fr:Gare de Huy"
  }
},
{
  "type": "node",
  "id": 5645451376,
  "lat": 50.4968073,
  "lon": 5.0952747,
  "tags": {
    "name": "Andenne",
    "name:nl": "Andenne",
    "operator": "NMBS/SNCB",
    "public_transport": "station",
    "railway": "station",
    "railway:ref": "NDN",
    "uic_ref": "8863404",
    "website": "http://www.belgianrail.be/Station.ashx?lang=fr&stationId=8863404",
    "wikidata": "Q2620535",
    "wikipedia": "fr:Gare d'Andenne"
  }
},
{
  "type": "node",
  "id": 5645730383,
  "lat": 50.4700859,
  "lon": 4.9976502,
  "tags": {
    "addr:street": "Rue de la Gare",
    "name": "Namêche",
    "name:nl": "Namêche",
    "operator": "NMBS/SNCB",
    "public_transport": "station",
    "railway": "station",
    "railway:ref": "NMH",
    "train": "yes",
    "uic_ref": "8863453",
    "website": "http://www.belgianrail.be/Station.ashx?lang=fr&stationId=8863453",
    "wikidata": "Q3097166",
    "wikipedia": "fr:Gare de Namêche"
  }
},
{
  "type": "node",
  "id": 5645730470,
  "lat": 50.4922014,
  "lon": 5.0265885,
  "tags": {
    "addr:street": "Rue de la Limite",
    "name": "Sclaigneaux",
    "name:nl": "Sclaigneaux",
    "operator": "NMBS/SNCB",
    "public_transport": "station",
    "railway": "station",
    "train": "yes",
    "uic_ref": "8863446",
    "website": "http://www.belgianrail.be/Station.ashx?lang=fr&stationId=8863446",
    "wikidata": "Q2481140",
    "wikipedia": "fr:Gare de Sclaigneaux"
  }
},
{
  "type": "node",
  "id": 5645805399,
  "lat": 50.4685751,
  "lon": 4.8625447,
  "tags": {
    "addr:city": "Namur",
    "addr:housenumber": "1",
    "addr:postcode": "5000",
    "addr:street": "Place de la Station",
    "name": "Namur",
    "name:nl": "Namen",
    "operator": "NMBS/SNCB",
    "public_transport": "station",
    "railway": "station",
    "railway:ref": "FNR",
    "train": "yes",
    "uic_ref": "8863008",
    "website": "http://www.belgianrail.be/Station.ashx?lang=fr&stationId=8863008",
    "wheelchair": "yes",
    "wikidata": "Q1951230",
    "wikipedia": "fr:Gare de Namur"
  }
},
{
  "type": "node",
  "id": 5650133165,
  "lat": 50.6613584,
  "lon": 5.5097759,
  "tags": {
    "name": "Ans",
    "name:nl": "Ans",
    "operator": "NMBS/SNCB",
    "public_transport": "station",
    "railway": "station",
    "railway:ref": "ANS",
    "uic_ref": "8841202",
    "website": "http://www.belgianrail.be/Station.ashx?lang=fr&stationId=8841202",
    "wikidata": "Q2481173",
    "wikipedia": "fr:Gare d'Ans"
  }
},
{
  "type": "node",
  "id": 5650206932,
  "lat": 50.6787498,
  "lon": 5.3207531,
  "tags": {
    "name": "Remicourt",
    "name:nl": "Remicourt",
    "operator": "NMBS/SNCB",
    "public_transport": "station",
    "railway": "station",
    "railway:ref": "FMU",
    "train": "yes",
    "uic_ref": "8841442",
    "website": "http://www.belgianrail.be/Station.ashx?lang=fr&stationId=8841442",
    "wikidata": "Q2264702",
    "wikipedia": "fr:Gare de Remicourt"
  }
},
{
  "type": "node",
  "id": 5651261635,
  "lat": 50.6946489,
  "lon": 5.2496619,
  "tags": {
    "name": "Waremme",
    "name:nl": "Borgworm",
    "operator": "NMBS/SNCB",
    "public_transport": "station",
    "railway": "station",
    "railway:ref": "FVR",
    "ref": "FVR",
    "train": "yes",
    "uic_ref": "8841400",
    "website": "http://www.belgianrail.be/Station.ashx?lang=fr&stationId=8841400",
    "wikidata": "Q2393685",
    "wikipedia": "fr:Gare de Waremme"
  }
},
{
  "type": "node",
  "id": 5651934790,
  "lat": 50.7715802,
  "lon": 4.9950215,
  "tags": {
    "name": "Ezemaal",
    "operator": "NMBS/SNCB",
    "operator:wikidata": "Q524255",
    "public_transport": "station",
    "railway": "station",
    "railway:ref": "FZE",
    "train": "yes",
    "uic_ref": "8833449",
    "website": "http://www.belgianrail.be/Station.ashx?lang=nl&stationId=8833449",
    "wikidata": "Q22911288",
    "wikipedia": "nl:Station Ezemaal"
  }
},
{
  "type": "node",
  "id": 5652190940,
  "lat": 50.8360362,
  "lon": 4.8356836,
  "tags": {
    "name": "Vertrijk",
    "operator": "NMBS/SNCB",
    "operator:wikidata": "Q524255",
    "public_transport": "station",
    "railway": "station",
    "railway:ref": "FVK",
    "train": "yes",
    "uic_ref": "8833050",
    "website": "http://www.belgianrail.be/Station.ashx?lang=nl&stationId=8833050",
    "wikidata": "Q2778419",
    "wikipedia": "nl:Station Vertrijk"
  }
},
{
  "type": "node",
  "id": 5654321189,
  "lat": 50.9004245,
  "lon": 4.6326967,
  "tags": {
    "name": "Veltem",
    "operator": "NMBS/SNCB",
    "operator:wikidata": "Q524255",
    "public_transport": "station",
    "railway": "station",
    "railway:ref": "FEM",
    "train": "yes",
    "uic_ref": "8811270",
    "website": "http://www.belgianrail.be/Station.ashx?lang=nl&stationId=8811270",
    "wikidata": "Q2415450",
    "wikipedia": "nl:Station Veltem"
  }
},
{
  "type": "node",
  "id": 5654321201,
  "lat": 50.9037678,
  "lon": 4.6751574,
  "tags": {
    "name": "Herent",
    "operator": "NMBS/SNCB",
    "operator:wikidata": "Q524255",
    "public_transport": "station",
    "railway": "station",
    "railway:ref": "FET",
    "train": "yes",
    "uic_ref": "8811288",
    "website": "http://www.belgianrail.be/Station.ashx?lang=nl&stationId=8811288",
    "wikidata": "Q2601999",
    "wikipedia": "nl:Station Herent"
  }
},
{
  "type": "node",
  "id": 5654460048,
  "lat": 50.8833278,
  "lon": 4.5058000,
  "tags": {
    "name": "Nossegem",
    "operator": "NMBS/SNCB",
    "operator:wikidata": "Q524255",
    "public_transport": "station",
    "railway": "station",
    "railway:ref": "LEM",
    "train": "yes",
    "uic_ref": "8811247",
    "website": "http://www.belgianrail.be/Station.ashx?lang=nl&stationId=8811247",
    "wikidata": "Q2029216",
    "wikipedia": "nl:Station Nossegem",
    "zone:Brupass": "XL"
  }
},
{
  "type": "node",
  "id": 5654460111,
  "lat": 50.8927499,
  "lon": 4.5410778,
  "tags": {
    "name": "Kortenberg",
    "operator": "NMBS/SNCB",
    "operator:wikidata": "Q524255",
    "public_transport": "station",
    "railway": "station",
    "railway:ref": "FTB",
    "train": "yes",
    "uic_ref": "8811254",
    "website": "http://www.belgianrail.be/Station.ashx?lang=nl&stationId=8811254",
    "wikidata": "Q3214244",
    "wikipedia": "nl:Station Kortenberg"
  }
},
{
  "type": "node",
  "id": 5654460255,
  "lat": 50.8966250,
  "lon": 4.5865908,
  "tags": {
    "name": "Erps-Kwerps",
    "operator": "NMBS/SNCB",
    "operator:wikidata": "Q524255",
    "public_transport": "station",
    "railway": "station",
    "railway:ref": "MRP",
    "train": "yes",
    "uic_ref": "8811262",
    "website": "http://www.belgianrail.be/Station.ashx?lang=nl&stationId=8811262",
    "wikidata": "Q2088913",
    "wikipedia": "nl:Station Erps-Kwerps"
  }
},
{
  "type": "node",
  "id": 5667469663,
  "lat": 50.8899608,
  "lon": 4.4452666,
  "tags": {
    "name": "Diegem",
    "operator": "NMBS/SNCB",
    "operator:wikidata": "Q524255",
    "public_transport": "station",
    "railway": "station",
    "railway:ref": "FDG",
    "train": "yes",
    "uic_ref": "8811213",
    "website": "http://www.belgianrail.be/Station.ashx?lang=nl&stationId=8811213",
    "wikidata": "Q2112006",
    "wikipedia": "nl:Station Diegem",
    "zone:Brupass": "XL"
  }
},
{
  "type": "node",
  "id": 5667469692,
  "lat": 50.8850132,
  "lon": 4.4729671,
  "tags": {
    "name": "Zaventem",
    "operator": "NMBS/SNCB",
    "operator:wikidata": "Q524255",
    "public_transport": "station",
    "railway": "station",
    "railway:ref": "FZA",
    "train": "yes",
    "uic_ref": "8811221",
    "website": "http://www.belgianrail.be/Station.ashx?lang=nl&stationId=8811221",
    "wikidata": "Q4370800",
    "wikipedia": "nl:Station Zaventem",
    "zone:Brupass": "XL"
  }
},
{
  "type": "node",
  "id": 5673285175,
  "lat": 50.8897104,
  "lon": 4.4156912,
  "tags": {
    "name": "Haren-Sud - Haren-Zuid",
    "name:fr": "Haren-Sud",
    "name:nl": "Haren-Zuid",
    "operator": "NMBS/SNCB",
    "public_transport": "station",
    "railway": "station",
    "railway:ref": "GHZ",
    "train": "yes",
    "uic_ref": "8811130",
    "website": "http://www.belgianrail.be/Station.ashx?lang=nl&stationId=8811130",
    "wikidata": "Q2697132",
    "wikipedia": "fr:Gare de Haren-Sud"
  }
},
{
  "type": "node",
  "id": 5688678697,
  "lat": 50.9226230,
  "lon": 4.7016294,
  "tags": {
    "name": "Wijgmaal",
    "operator": "NMBS/SNCB",
    "operator:wikidata": "Q524255",
    "public_transport": "station",
    "railway": "station",
    "train": "yes",
    "wheelchair": "no",
    "wikidata": "Q2177319",
    "wikipedia": "nl:Station Wijgmaal"
  }
},
{
  "type": "node",
  "id": 5699706957,
  "lat": 51.1506575,
  "lon": 4.0878484,
  "tags": {
    "name": "Belsele",
    "operator": "NMBS/SNCB",
    "operator:wikidata": "Q524255",
    "public_transport": "station",
    "railway": "station",
    "railway:ref": "LLB",
    "train": "yes",
    "wikidata": "Q1886053",
    "wikipedia": "nl:Station Belsele"
  }
},
{
  "type": "node",
  "id": 5706148705,
  "lat": 50.9820186,
  "lon": 4.5736867,
  "tags": {
    "name": "Boortmeerbeek",
    "operator": "NMBS/SNCB",
    "operator:wikidata": "Q524255",
    "public_transport": "station",
    "railway": "station",
    "train": "yes",
    "wikidata": "Q613480",
    "wikipedia": "nl:Station Boortmeerbeek"
  }
},
{
  "type": "node",
  "id": 5706148842,
  "lat": 50.9442794,
  "lon": 4.6634468,
  "tags": {
    "name": "Hambos",
    "operator": "NMBS/SNCB",
    "operator:wikidata": "Q524255",
    "public_transport": "station",
    "railway": "station",
    "train": "yes",
    "wikidata": "Q2604327",
    "wikipedia": "nl:Station Hambos"
  }
},
{
  "type": "node",
  "id": 5709413346,
  "lat": 51.0087257,
  "lon": 4.5134363,
  "tags": {
    "name": "Muizen",
    "public_transport": "station",
    "railway": "station",
    "railway:ref": "FIZ",
    "train": "yes",
    "uic_ref": "8822426",
    "wikidata": "Q2662472"
  }
},
{
  "type": "node",
  "id": 5709413378,
  "lat": 50.9974238,
  "lon": 4.5383593,
  "tags": {
    "name": "Hever",
    "operator:wikidata": "Q524255",
    "public_transport": "station",
    "railway": "station",
    "train": "yes",
    "wikidata": "Q3096627",
    "wikipedia": "nl:Station Hever"
  }
},
{
  "type": "node",
  "id": 5713037711,
  "lat": 50.5433547,
  "lon": 4.0104248,
  "tags": {
    "name": "Neufvilles",
    "name:nl": "Neufvilles",
    "operator": "NMBS/SNCB",
    "public_transport": "station",
    "railway": "station",
    "railway:ref": "FFV",
    "station": "train",
    "train": "yes",
    "uic_ref": "8883121",
    "website": "http://www.belgianrail.be/fr/gares/recherche-gares/20/neufvilles.aspx",
    "wikidata": "Q2135183",
    "wikipedia": "fr:Gare de Neufvilles"
  }
},
{
  "type": "node",
  "id": 5734657961,
  "lat": 50.6054798,
  "lon": 5.5362906,
  "tags": {
    "name": "Ougrée",
    "operator": "NMBS/SNCB",
    "public_transport": "station",
    "railway": "station",
    "railway:ref": "LGR",
    "train": "yes",
    "uic_ref": "8843174",
    "website": "http://www.belgianrail.be/Station.ashx?lang=fr&stationId=8843174"
  }
},
{
  "type": "node",
  "id": 5734657962,
  "lat": 50.6087967,
  "lon": 5.5130930,
  "tags": {
    "internet_access": "no",
    "name": "Seraing",
    "operator": "NMBS/SNCB",
    "public_transport": "station",
    "railway": "station",
    "railway:ref": "NSR",
    "train": "yes",
    "uic_ref": "8843067",
    "website": "http://www.belgianrail.be/Station.ashx?lang=fr&stationId=8843067"
  }
},
{
  "type": "node",
  "id": 5752361275,
  "lat": 51.0193803,
  "lon": 4.1540216,
  "tags": {
    "name": "Baasrode-Zuid",
    "operator:wikidata": "Q524255",
    "public_transport": "station",
    "railway": "station",
    "railway:ref": "FRA",
    "train": "yes",
    "wikidata": "Q2342675",
    "wikipedia": "nl:Station Baasrode-Zuid"
  }
},
{
  "type": "node",
  "id": 5752361290,
  "lat": 51.0162689,
  "lon": 4.2011601,
  "tags": {
    "name": "Buggenhout",
    "operator": "NMBS/SNCB",
    "operator:wikidata": "Q524255",
    "public_transport": "station",
    "railway": "station",
    "railway:ref": "FGN",
    "train": "yes",
    "wikidata": "Q2634729",
    "wikipedia": "nl:Station Buggenhout"
  }
},
{
  "type": "node",
  "id": 5752361304,
  "lat": 51.0144035,
  "lon": 4.2286648,
  "tags": {
    "name": "Malderen",
    "operator:wikidata": "Q524255",
    "public_transport": "station",
    "railway": "station",
    "railway:ref": "FMD",
    "train": "yes",
    "wikidata": "Q2918495",
    "wikipedia": "nl:Station Malderen"
  }
},
{
  "type": "node",
  "id": 5752361314,
  "lat": 51.0092413,
  "lon": 4.2980562,
  "tags": {
    "name": "Londerzeel",
    "operator:wikidata": "Q524255",
    "public_transport": "station",
    "railway": "station",
    "railway:ref": "FZL",
    "train": "yes",
    "wikidata": "Q2697121",
    "wikipedia": "nl:Station Londerzeel"
  }
},
{
  "type": "node",
  "id": 5752361427,
  "lat": 51.0108251,
  "lon": 4.3590564,
  "tags": {
    "name": "Kapelle-op-den-Bos",
    "operator:wikidata": "Q524255",
    "public_transport": "station",
    "railway": "station",
    "railway:ref": "FKP",
    "train": "yes",
    "wikidata": "Q2777622",
    "wikipedia": "nl:Station Kapelle-op-den-Bos"
  }
},
{
  "type": "node",
  "id": 5759145919,
  "lat": 51.0018607,
  "lon": 3.9703050,
  "tags": {
    "name": "Wichelen",
    "public_transport": "station",
    "railway": "station",
    "railway:ref": "FNW",
    "train": "yes",
    "wikidata": "Q2856149",
    "wikipedia": "nl:Station Wichelen"
  }
},
{
  "type": "node",
  "id": 5759149230,
  "lat": 51.0031806,
  "lon": 4.0115346,
  "tags": {
    "name": "Schoonaarde",
    "public_transport": "station",
    "railway": "station",
    "railway:ref": "FAD",
    "train": "yes",
    "wikidata": "Q1952616"
  }
},
{
  "type": "node",
  "id": 5759149238,
  "lat": 51.0150135,
  "lon": 4.0637076,
  "tags": {
    "name": "Oudegem",
    "public_transport": "station",
    "railway": "station",
    "railway:ref": "FDM",
    "train": "yes",
    "wikidata": "Q1995918",
    "wikipedia": "nl:Station Oudegem"
  }
},
{
  "type": "node",
  "id": 5760185139,
  "lat": 50.8006875,
  "lon": 4.6517014,
  "tags": {
    "name": "Sint-Joris-Weert",
    "operator": "NMBS/SNCB",
    "operator:wikidata": "Q524255",
    "public_transport": "station",
    "railway": "station",
    "railway:ref": "GSW",
    "train": "yes",
    "uic_ref": "8833159",
    "wheelchair": "limited",
    "wikidata": "Q2190537",
    "wikipedia": "nl:Station Sint-Joris-Weert"
  }
},
{
  "type": "node",
  "id": 5760591330,
  "lat": 50.7161154,
  "lon": 4.6053217,
  "tags": {
    "name": "Wavre",
    "name:nl": "Waver",
    "operator": "NMBS/SNCB",
    "public_transport": "station",
    "railway": "station",
    "railway:ref": "GWV",
    "train": "yes",
    "uic_ref": "8811726",
    "website": "http://www.belgianrail.be/fr/gares/recherche-gares/14/wavre.aspx",
    "wheelchair": "no",
    "wikidata": "Q2493508",
    "wikipedia": "fr:Gare de Wavre"
  }
},
{
  "type": "node",
  "id": 5761481284,
  "lat": 49.5928725,
  "lon": 5.8184756,
  "tags": {
    "name": "Messancy",
    "name:lb": "Miezeg",
    "name:nl": "Messancy",
    "name:ru": "Месанси",
    "operator": "NMBS/SNCB",
    "public_transport": "station",
    "railway": "station",
    "railway:ref": "MY",
    "train": "yes",
    "uic_ref": "8866662",
    "website": "http://www.belgianrail.be/fr/gares/recherche-gares/17/messancy.aspx",
    "wheelchair": "limited",
    "wikidata": "Q2372985",
    "wikipedia": "fr:Gare de Messancy"
  }
},
{
  "type": "node",
  "id": 5764358887,
  "lat": 49.5559197,
  "lon": 5.7428745,
  "tags": {
    "alt_name:lb": "Hoeldang",
    "name": "Halanzy",
    "name:de": "Holdingen",
    "name:lb": "Hueldang",
    "name:nl": "Halanzy",
    "name:ru": "Аланзи",
    "name:wa": "Halazi",
    "operator": "NMBS/SNCB",
    "public_transport": "station",
    "railway": "station",
    "railway:ref": "MHZ",
    "train": "yes",
    "uic_ref": "8866530",
    "website": "http://www.belgianrail.be/fr/gares/recherche-gares/17/halanzy.aspx",
    "wikidata": "Q3096607",
    "wikipedia": "fr:Gare d'Halanzy"
  }
},
{
  "type": "node",
  "id": 5764359919,
  "lat": 49.5634996,
  "lon": 5.7994748,
  "tags": {
    "alt_name:lb": "Ibéng",
    "name": "Aubange",
    "name:de": "Ibingen",
    "name:lb": "Éibeng",
    "name:nl": "Aubange",
    "name:wa": "Åbindje",
    "operator": "NMBS/SNCB",
    "public_transport": "station",
    "railway": "station",
    "railway:ref": "MAB",
    "train": "yes",
    "uic_ref": "8866654",
    "website": "http://www.belgianrail.be/fr/gares/recherche-gares/17/aubange.aspx",
    "wikidata": "Q1844932",
    "wikipedia": "fr:Gare d'Aubange"
  }
},
{
  "type": "node",
  "id": 5766470106,
  "lat": 49.5605149,
  "lon": 5.5196466,
  "tags": {
    "name": "Virton",
    "name:de": "Wirten",
    "name:nl": "Virton",
    "old_name": "Virton-Saint-Mard",
    "operator": "NMBS/SNCB",
    "public_transport": "station",
    "railway": "station",
    "railway:ref": "MSM",
    "train": "yes",
    "uic_ref": "8866407",
    "website": "http://www.belgianrail.be/fr/gares/recherche-gares/17/virton.aspx",
    "wikidata": "Q3098024",
    "wikipedia": "fr:Virton"
  }
},
{
  "type": "node",
  "id": 5768862934,
  "lat": 49.7070559,
  "lon": 5.3318250,
  "tags": {
    "name": "Florenville",
    "name:nl": "Florenville",
    "operator": "NMBS/SNCB",
    "public_transport": "station",
    "railway": "station",
    "railway:ref": "MFL",
    "train": "yes",
    "uic_ref": "8866845",
    "website": "http://www.belgianrail.be/fr/gares/recherche-gares/17/florenville.aspx",
    "wheelchair": "limited",
    "wikidata": "Q2479235",
    "wikipedia": "fr:Gare de Florenville"
  }
},
{
  "type": "node",
  "id": 5771497176,
  "lat": 49.8526996,
  "lon": 5.2678060,
  "tags": {
    "name": "Bertrix",
    "name:nl": "Bertrix",
    "operator": "NMBS/SNCB",
    "public_transport": "station",
    "railway": "station",
    "railway:ref": "MBX",
    "train": "yes",
    "uic_ref": "8865300",
    "website": "http://www.belgianrail.be/fr/gares/recherche-gares/17/bertrix.aspx",
    "wikidata": "Q2145703",
    "wikipedia": "fr:Gare de Bertrix"
  }
},
{
  "type": "node",
  "id": 5779840185,
  "lat": 49.9202357,
  "lon": 5.3792715,
  "tags": {
    "name": "Libramont",
    "name:nl": "Libramont",
    "operator": "NMBS/SNCB",
    "public_transport": "station",
    "railway": "station",
    "railway:ref": "LRB",
    "train": "yes",
    "uic_ref": "8865003",
    "website": "http://www.belgianrail.be/fr/gares/recherche-gares/17/libramont.aspx",
    "wikidata": "Q2856503",
    "wikipedia": "fr:Gare de Libramont"
  }
},
{
  "type": "node",
  "id": 5861541102,
  "lat": 49.8952062,
  "lon": 5.1187309,
  "tags": {
    "name": "Paliseul",
    "name:nl": "Paliseul",
    "name:ru": "Пализёль",
    "operator": "NMBS/SNCB",
    "public_transport": "station",
    "railway": "station",
    "railway:ref": "MPL",
    "train": "yes",
    "uic_ref": "8865540",
    "website": "http://www.belgianrail.be/fr/gares/recherche-gares/17/paliseul.aspx",
    "wikidata": "Q2098757",
    "wikipedia": "fr:Gare de Paliseul"
  }
},
{
  "type": "node",
  "id": 5863457409,
  "lat": 49.9842836,
  "lon": 4.9782107,
  "tags": {
    "name": "Gedinne",
    "name:nl": "Gedinne",
    "operator": "NMBS/SNCB",
    "public_transport": "station",
    "railway": "station",
    "railway:ref": "MG",
    "train": "yes",
    "uic_ref": "8865649",
    "website": "http://www.belgianrail.be/fr/gares/recherche-gares/17/gedinne.aspx",
    "wikidata": "Q2013241",
    "wikipedia": "fr:Gare de Gedinne"
  }
},
{
  "type": "node",
  "id": 5863457476,
  "lat": 49.9338624,
  "lon": 5.0433101,
  "tags": {
    "name": "Graide",
    "name:nl": "Graide",
    "operator": "NMBS/SNCB",
    "public_transport": "station",
    "railway": "station",
    "railway:ref": "MGD",
    "train": "yes",
    "uic_ref": "8865615",
    "website": "http://www.belgianrail.be/fr/gares/recherche-gares/17/graide.aspx",
    "wikidata": "Q2743727",
    "wikipedia": "fr:Gare de Graide"
  }
},
{
  "type": "node",
  "id": 5863457530,
  "lat": 49.9073932,
  "lon": 5.0873516,
  "tags": {
    "name": "Carlsbourg",
    "name:nl": "Carlsbourg",
    "operator": "NMBS/SNCB",
    "public_transport": "station",
    "railway": "station",
    "railway:ref": "MCL",
    "train": "yes",
    "uic_ref": "8865565",
    "website": "http://www.belgianrail.be/fr/gares/recherche-gares/17/carlsbourg.aspx",
    "wikidata": "Q2389574",
    "wikipedia": "fr:Gare de Carlsbourg"
  }
},
{
  "type": "node",
  "id": 5863700965,
  "lat": 50.1148164,
  "lon": 4.9567776,
  "tags": {
    "name": "Beauraing",
    "name:nl": "Beauraing",
    "operator": "NMBS/SNCB",
    "public_transport": "station",
    "railway": "station",
    "railway:ref": "MBG",
    "train": "yes",
    "uic_ref": "8863867",
    "website": "http://www.belgianrail.be/fr/gares/recherche-gares/17/beauraing.aspx",
    "wikidata": "Q2489858",
    "wikipedia": "fr:Gare de Beauraing"
  }
},
{
  "type": "node",
  "id": 5864086201,
  "lat": 50.1901302,
  "lon": 5.0060602,
  "tags": {
    "name": "Houyet",
    "name:nl": "Houyet",
    "name:ru": "Уйе",
    "operator": "NMBS/SNCB",
    "public_transport": "station",
    "railway": "station",
    "railway:ref": "MHY",
    "train": "yes",
    "uic_ref": "8863842",
    "website": "http://www.belgianrail.be/fr/gares/recherche-gares/17/houyet.aspx",
    "wikidata": "Q3096642",
    "wikipedia": "fr:Gare de Houyet"
  }
},
{
  "type": "node",
  "id": 5865167974,
  "lat": 50.6057582,
  "lon": 4.1382245,
  "tags": {
    "name": "Braine-le-Comte",
    "name:nl": "'s-Gravenbrakel",
    "operator": "NMBS/SNCB",
    "public_transport": "station",
    "railway": "station",
    "railway:ref": "FBC",
    "train": "yes",
    "uic_ref": "8883006",
    "website": "http://www.belgianrail.be/fr/gares/recherche-gares/20/braine-le-comte.aspx",
    "wheelchair": "yes",
    "wikidata": "Q3096055",
    "wikipedia": "fr:Gare de Braine-le-Comte"
  }
},
{
  "type": "node",
  "id": 5875529913,
  "lat": 50.2373562,
  "lon": 4.9047258,
  "tags": {
    "name": "Anseremme",
    "name:nl": "Anseremme",
    "name:ru": "Ансерем",
    "operator": "NMBS/SNCB",
    "public_transport": "station",
    "railway": "station",
    "railway:ref": "MNS",
    "train": "yes",
    "uic_ref": "8863818",
    "website": "http://www.belgianrail.be/fr/gares/recherche-gares/14/anseremme.aspx",
    "wikidata": "Q3095645",
    "wikipedia": "fr:Gare d'Anseremme"
  }
},
{
  "type": "node",
  "id": 5875529958,
  "lat": 50.2104997,
  "lon": 4.9646491,
  "tags": {
    "name": "Gendron-Celles",
    "name:nl": "Gendron-Celles",
    "operator": "NMBS/SNCB",
    "public_transport": "station",
    "railway": "station",
    "railway:ref": "MGN",
    "train": "yes",
    "uic_ref": "8863834",
    "website": "http://www.belgianrail.be/fr/gares/recherche-gares/17/gendron-celles.aspx",
    "wikidata": "Q16964673",
    "wikipedia": "fr:Gare de Gendron - Celles"
  }
},
{
  "type": "node",
  "id": 5875951223,
  "lat": 49.6804150,
  "lon": 5.8095313,
  "tags": {
    "name": "Arlon",
    "name:nl": "Aarlen",
    "operator": "NMBS/SNCB",
    "public_transport": "station",
    "railway": "station",
    "railway:ref": "LL",
    "train": "yes",
    "uic_ref": "8866001",
    "website": "http://www.belgianrail.be/fr/gares/recherche-gares/17/arlon.aspx",
    "wheelchair": "no",
    "wikidata": "Q2043244",
    "wikipedia": "fr:Gare d'Arlon"
  }
},
{
  "type": "node",
  "id": 5876112723,
  "lat": 49.6909216,
  "lon": 5.7678737,
  "tags": {
    "name": "Stockem",
    "name:lb": "Stockem",
    "name:nl": "Stockem",
    "operator": "NMBS/SNCB",
    "public_transport": "station",
    "railway": "station",
    "railway:ref": "MKM",
    "train": "yes",
    "uic_ref": "8862018",
    "website": "http://www.belgianrail.be/fr/gares/recherche-gares/17/stockem.aspx",
    "wikidata": "Q2728895",
    "wikipedia": "fr:Gare de Stockem"
  }
},
{
  "type": "node",
  "id": 5876112729,
  "lat": 49.6882087,
  "lon": 5.7858779,
  "tags": {
    "name": "Viville",
    "name:lb": "Viville",
    "name:nl": "Viville",
    "operator": "NMBS/SNCB",
    "public_transport": "station",
    "railway": "station",
    "railway:ref": "FVIV",
    "train": "yes",
    "uic_ref": "8866118",
    "website": "http://www.belgianrail.be/fr/gares/recherche-gares/17/vivelle.aspx",
    "wikidata": "Q2777083",
    "wikipedia": "fr:Gare de Viville"
  }
},
{
  "type": "node",
  "id": 5882541161,
  "lat": 49.7274187,
  "lon": 5.5393884,
  "tags": {
    "name": "Marbehan",
    "name:lb": "Marbehan",
    "name:nl": "Marbehan",
    "operator": "NMBS/SNCB",
    "public_transport": "station",
    "railway": "station",
    "railway:ref": "LMH",
    "train": "yes",
    "uic_ref": "8866175",
    "website": "http://www.belgianrail.be/fr/gares/recherche-gares/17/marbehan.aspx",
    "wheelchair": "yes",
    "wikidata": "Q662867",
    "wikipedia": "fr:Gare de Marbehan"
  }
},
{
  "type": "node",
  "id": 5888612385,
  "lat": 50.1599751,
  "lon": 5.2671586,
  "tags": {
    "name": "Rochefort-Jemelle",
    "name:nl": "Rochefort-Jemelle",
    "operator": "NMBS/SNCB",
    "public_transport": "station",
    "railway": "station",
    "railway:ref": "LJ",
    "train": "yes",
    "uic_ref": "8864006",
    "website": "http://www.belgianrail.be/fr/gares/recherche-gares/17/jemelle.aspx",
    "wikidata": "Q3096654",
    "wikipedia": "fr:Gare de Jemelle"
  }
},
{
  "type": "node",
  "id": 5892984186,
  "lat": 50.2913832,
  "lon": 5.0914540,
  "tags": {
    "name": "Ciney",
    "name:nl": "Ciney",
    "operator": "NMBS/SNCB",
    "public_transport": "station",
    "railway": "station",
    "railway:ref": "LC",
    "train": "yes",
    "uic_ref": "8864501",
    "website": "http://www.belgianrail.be/fr/gares/recherche-gares/14/ciney.aspx",
    "wikidata": "Q2300665",
    "wikipedia": "fr:Gare de Ciney"
  }
},
{
  "type": "node",
  "id": 5924236536,
  "lat": 50.8221263,
  "lon": 4.3895883,
  "tags": {
    "name": "Etterbeek",
    "opening_hours:office": "Mo-Fr 06:15-20:15",
    "operator": "NMBS/SNCB",
    "public_transport": "station",
    "railway": "station",
    "railway:ref": "MTB",
    "train": "yes",
    "uic_ref": "8811411",
    "wheelchair": "no",
    "wikidata": "Q2723162",
    "wikipedia": "fr:Gare d'Etterbeek"
  }
},
{
  "type": "node",
  "id": 5924443350,
  "lat": 50.8428667,
  "lon": 4.3806152,
  "tags": {
    "name": "Bruxelles-Schuman - Brussel-Schuman",
    "name:en": "Brussels-Schuman",
    "name:etymology:wikidata": "Q15981",
    "name:fr": "Bruxelles-Schuman",
    "name:nl": "Brussel-Schuman",
    "operator": "NMBS/SNCB",
    "operator:wikidata": "Q524255",
    "public_transport": "station",
    "railway": "station",
    "railway:ref": "FBSM",
    "train": "yes",
    "uic_ref": "8811916",
    "wikidata": "Q800589",
    "wikipedia": "nl:Station Brussel-Schuman"
  }
},
{
  "type": "node",
  "id": 5927413089,
  "lat": 50.3206651,
  "lon": 4.8785998,
  "tags": {
    "name": "Yvoir",
    "name:nl": "Yvoir",
    "operator": "NMBS/SNCB",
    "public_transport": "station",
    "railway": "station",
    "railway:ref": "NV",
    "train": "yes",
    "uic_ref": "8863545",
    "website": "http://www.belgianrail.be/fr/gares/recherche-gares/14/Yvoir.aspx",
    "wikidata": "Q2766631",
    "wikipedia": "fr:Gare d'Yvoir"
  }
},
{
  "type": "node",
  "id": 5927413236,
  "lat": 50.2612142,
  "lon": 4.9079420,
  "tags": {
    "name": "Dinant",
    "name:nl": "Dinant",
    "operator": "NMBS/SNCB",
    "public_transport": "station",
    "railway": "station",
    "railway:ref": "NDT",
    "train": "yes",
    "uic_ref": "8863503",
    "website": "http://www.belgianrail.be/fr/gares/recherche-gares/14/dinant.aspx",
    "wikidata": "Q2746627",
    "wikipedia": "fr:Gare de Dinant"
  }
},
{
  "type": "node",
  "id": 5952310602,
  "lat": 50.4513053,
  "lon": 4.6632648,
  "tags": {
    "name": "Jemeppe-sur-Sambre",
    "name:nl": "Jemeppe-sur-Sambre",
    "operator": "NMBS/SNCB",
    "platforms": "4",
    "public_transport": "station",
    "railway": "station",
    "railway:ref": "FJS",
    "train": "yes",
    "uic_ref": "8874724",
    "website": "http://www.belgianrail.be/fr/gares/recherche-gares/14/jemeppe-sur-sambre.aspx",
    "wikidata": "Q2284577",
    "wikipedia": "fr:Gare de Jemeppe-sur-Sambre"
  }
},
{
  "type": "node",
  "id": 5955059898,
  "lat": 50.4491752,
  "lon": 4.6314481,
  "tags": {
    "name": "Auvelais",
    "name:nl": "Auvelais",
    "operator": "NMBS/SNCB",
    "public_transport": "station",
    "railway": "station",
    "railway:ref": "FVL",
    "train": "yes",
    "uic_ref": "8874716",
    "website": "http://www.belgianrail.be/fr/gares/recherche-gares/19/auvelais.aspx",
    "wikidata": "Q977561",
    "wikipedia": "fr:Gare d'Auvelais"
  }
},
{
  "type": "node",
  "id": 5955060055,
  "lat": 50.4822918,
  "lon": 4.5439909,
  "tags": {
    "name": "Fleurus",
    "name:nl": "Fleurus",
    "operator": "NMBS/SNCB",
    "public_transport": "station",
    "railway": "station",
    "railway:ref": "LFR",
    "train": "yes",
    "uic_ref": "8872413",
    "website": "http://www.belgianrail.be/fr/gares/recherche-gares/19/fleurus.aspx",
    "wikidata": "Q2033211",
    "wikipedia": "fr:Gare de Fleurus"
  }
},
{
  "type": "node",
  "id": 5967211577,
  "lat": 50.4112062,
  "lon": 4.4368414,
  "tags": {
    "name": "Charleroi-Ouest",
    "name:nl": "Charleroi-West",
    "operator": "NMBS/SNCB",
    "public_transport": "station",
    "railway": "station",
    "railway:ref": "FCRO",
    "train": "yes",
    "uic_ref": "8872066",
    "website": "http://www.belgianrail.be/fr/gares/recherche-gares/19/charleroi-ouest.aspx",
    "wikidata": "Q954149",
    "wikipedia": "fr:Gare de Charleroi-Ouest"
  }
},
{
  "type": "node",
  "id": 5972727723,
  "lat": 50.5061805,
  "lon": 4.2347244,
  "tags": {
    "name": "Manage",
    "name:nl": "Manage",
    "operator": "NMBS/SNCB",
    "public_transport": "station",
    "railway": "station",
    "railway:ref": "FMN",
    "train": "yes",
    "uic_ref": "8882701",
    "website": "http://www.belgianrail.be/fr/gares/recherche-gares/19/manage.aspx",
    "wikidata": "Q2110854",
    "wikipedia": "fr:Gare de Manage"
  }
},
{
  "type": "node",
  "id": 5976088018,
  "lat": 50.4094033,
  "lon": 4.5209408,
  "tags": {
    "name": "Châtelet",
    "name:nl": "Châtelet",
    "operator": "NMBS/SNCB",
    "public_transport": "station",
    "railway": "station",
    "railway:ref": "FCL",
    "train": "yes",
    "uic_ref": "8874005",
    "website": "http://www.belgianrail.be/fr/gares/recherche-gares/19/chatelet.aspx",
    "wikidata": "Q3096240",
    "wikipedia": "fr:Gare de Châtelet"
  }
},
{
  "type": "node",
  "id": 5976176285,
  "lat": 50.0957361,
  "lon": 4.5244610,
  "tags": {
    "name": "Mariembourg",
    "name:de": "Marienburg",
    "name:nl": "Mariembourg",
    "operator": "NMBS/SNCB",
    "public_transport": "station",
    "railway": "station",
    "railway:ref": "LMG",
    "train": "yes",
    "uic_ref": "8875002",
    "website": "http://www.belgianrail.be/fr/gares/recherche-gares/19/mariembourg.aspx",
    "wikidata": "Q2789199",
    "wikipedia": "fr:Gare de Mariembourg"
  }
},
{
  "type": "node",
  "id": 5976176358,
  "lat": 50.0564153,
  "lon": 4.4919865,
  "tags": {
    "name": "Couvin",
    "name:nl": "Couvin",
    "operator": "NMBS/SNCB",
    "public_transport": "station",
    "railway": "station",
    "railway:ref": "LCV",
    "train": "yes",
    "uic_ref": "8875127",
    "website": "http://www.belgianrail.be/fr/gares/recherche-gares/19/couvin.aspx",
    "wikidata": "Q2162997",
    "wikipedia": "fr:Gare de Couvin"
  }
},
{
  "type": "node",
  "id": 5979541222,
  "lat": 50.1914904,
  "lon": 4.5361192,
  "tags": {
    "name": "Philippeville",
    "name:lb": "Philippeville",
    "name:nl": "Philippeville",
    "operator": "NMBS/SNCB",
    "public_transport": "station",
    "railway": "station",
    "railway:ref": "GPL",
    "train": "yes",
    "uic_ref": "8873122",
    "website": "http://www.belgianrail.be/fr/gares/recherche-gares/19/philippeville.aspx",
    "wikidata": "Q2234535",
    "wikipedia": "fr:Gare de Philippeville"
  }
},
{
  "type": "node",
  "id": 5982811887,
  "lat": 50.2592973,
  "lon": 4.4361958,
  "tags": {
    "name": "Walcourt",
    "name:nl": "Walcourt",
    "operator": "NMBS/SNCB",
    "public_transport": "station",
    "railway": "station",
    "railway:ref": "LWC",
    "train": "yes",
    "uic_ref": "8873007",
    "website": "http://www.belgianrail.be/fr/gares/recherche-gares/19/walcourt.aspx",
    "wikidata": "Q2061873",
    "wikipedia": "fr:Gare de Walcourt"
  }
},
{
  "type": "node",
  "id": 5990597788,
  "lat": 50.4581720,
  "lon": 4.8292922,
  "tags": {
    "addr:city": "Flawinne",
    "addr:postcode": "5020",
    "addr:street": "Rue Jean-Joseph Gaillard",
    "name": "Ronet",
    "name:nl": "Ronet",
    "operator": "NMBS/SNCB",
    "public_transport": "station",
    "railway": "station",
    "railway:ref": "FEO",
    "train": "yes",
    "uic_ref": "8861119",
    "website": "http://www.belgianrail.be/fr/gares/recherche-gares/14/ronet.aspx",
    "wikidata": "Q2440909",
    "wikipedia": "fr:Gare de Ronet"
  }
},
{
  "type": "node",
  "id": 5996235083,
  "lat": 50.4323401,
  "lon": 4.6097417,
  "tags": {
    "name": "Tamines",
    "name:nl": "Tamines",
    "operator": "NMBS/SNCB",
    "public_transport": "station",
    "railway": "station",
    "railway:ref": "FTM",
    "train": "yes",
    "uic_ref": "8874609",
    "website": "http://www.belgianrail.be/fr/gares/recherche-gares/19/tamines.aspx",
    "wikidata": "Q2492695",
    "wikipedia": "fr:Gare de Tamines"
  }
},
{
  "type": "node",
  "id": 6010646002,
  "lat": 50.4047346,
  "lon": 4.4387810,
  "tags": {
    "name": "Charleroi-Central",
    "name:nl": "Charleroi-Centraal",
    "old_name": "Charleroi-Sud",
    "old_name:nl": "Charleroi-Zuid",
    "operator": "NMBS/SNCB",
    "public_transport": "station",
    "railway": "station",
    "railway:ref": "FCR",
    "start_date": "1843-07-30",
    "uic_ref": "8872009",
    "website": "http://www.belgianrail.be/fr/gares/recherche-gares/19/charleroi-sud.aspx",
    "wheelchair": "yes",
    "wikidata": "Q2043526",
    "wikipedia": "fr:Gare de Charleroi-Sud"
  }
},
{
  "type": "node",
  "id": 6016120140,
  "lat": 50.3036552,
  "lon": 4.1124146,
  "tags": {
    "name": "Erquelinnes",
    "operator": "NMBS/SNCB",
    "public_transport": "station",
    "railway": "station",
    "railway:ref": "LQ",
    "train": "yes",
    "uic_ref": "8871605"
  }
},
{
  "type": "node",
  "id": 6023088536,
  "lat": 50.4123170,
  "lon": 4.3941506,
  "tags": {
    "name": "Marchienne-au-Pont",
    "name:nl": "Marchienne-au-Pont",
    "operator": "NMBS/SNCB",
    "public_transport": "station",
    "railway": "station",
    "railway:ref": "FMR",
    "train": "yes",
    "uic_ref": "8871100",
    "website": "http://www.belgianrail.be/fr/gares/recherche-gares/19/marchienne-au-pont.aspx",
    "wikidata": "Q2310045",
    "wikipedia": "fr:Gare de Marchienne-au-Pont"
  }
},
{
  "type": "node",
  "id": 6025570232,
  "lat": 50.4429929,
  "lon": 4.3937321,
  "tags": {
    "name": "Roux",
    "name:nl": "Roux",
    "operator": "NMBS/SNCB",
    "public_transport": "station",
    "railway": "station",
    "railway:ref": "FRX",
    "uic_ref": "8871217",
    "website": "http://www.belgianrail.be/fr/gares/recherche-gares/19/roux.aspx",
    "wikidata": "Q643231",
    "wikipedia": "fr:Gare de Roux"
  }
},
{
  "type": "node",
  "id": 6028139914,
  "lat": 50.5062363,
  "lon": 4.3839192,
  "tags": {
    "name": "Luttre",
    "name:nl": "Luttre",
    "operator": "NMBS/SNCB",
    "public_transport": "station",
    "railway": "station",
    "railway:ref": "FLU",
    "train": "yes",
    "uic_ref": "8871308",
    "website": "http://www.belgianrail.be/fr/gares/recherche-gares/19/luttre.aspx",
    "wikidata": "Q2171146",
    "wikipedia": "fr:Gare de Luttre"
  }
},
{
  "type": "node",
  "id": 6031556542,
  "lat": 50.6450036,
  "lon": 4.3650953,
  "tags": {
    "name": "Lillois",
    "name:nl": "Lillois",
    "operator": "NMBS/SNCB",
    "public_transport": "station",
    "railway": "station",
    "railway:ref": "FOL",
    "train": "yes",
    "uic_ref": "8814241",
    "website": "http://www.belgianrail.be/fr/gares/recherche-gares/19/lillois.aspx",
    "wikidata": "Q3096887",
    "wikipedia": "fr:Gare de Lillois"
  }
},
{
  "type": "node",
  "id": 6033722909,
  "lat": 50.7159739,
  "lon": 4.3835881,
  "tags": {
    "name": "Waterloo",
    "name:nl": "Waterloo",
    "operator": "NMBS/SNCB",
    "public_transport": "station",
    "railway": "station",
    "railway:ref": "FWT",
    "train": "yes",
    "uic_ref": "8814266",
    "website": "http://www.belgianrail.be/fr/gares/recherche-gares/19/waterloo.aspx",
    "wikidata": "Q2695662",
    "wikipedia": "fr:Gare de Waterloo (Belgique)"
  }
},
{
  "type": "node",
  "id": 6033722936,
  "lat": 50.6841288,
  "lon": 4.3758099,
  "tags": {
    "name": "Braine-l'Alleud",
    "name:nl": "Eigenbrakel",
    "name:wa": "Brinne-l'-Alou",
    "operator": "NMBS/SNCB",
    "public_transport": "station",
    "railway": "station",
    "railway:ref": "FBD",
    "train": "yes",
    "uic_ref": "8814258",
    "website": "http://www.belgianrail.be/fr/gares/recherche-gares/19/braine-l-alleud.aspx",
    "wheelchair": "limited",
    "wikidata": "Q2060145",
    "wikipedia": "fr:Gare de Braine-l'Alleud"
  }
},
{
  "type": "node",
  "id": 6341861702,
  "lat": 50.4089064,
  "lon": 4.1728879,
  "tags": {
    "baby_feeding": "no",
    "internet_access": "no",
    "name": "Binche",
    "name:nl": "Binche",
    "opening_hours:waiting_room": "Mo-Fr 05:45-20:00; Sa,Su 07:00-20:00",
    "operator": "NMBS/SNCB",
    "public_transport": "station",
    "railway": "station",
    "railway:ref": "LBH",
    "train": "yes",
    "uic_ref": "8882362",
    "website": "http://www.belgianrail.be/fr/gares/recherche-gares/19/binche.aspx",
    "wheelchair": "no",
    "wikidata": "Q3095993",
    "wikipedia": "fr:Gare de Binche"
  }
},
{
  "type": "node",
  "id": 6345874210,
  "lat": 50.4349107,
  "lon": 4.2889391,
  "tags": {
    "name": "Piéton",
    "name:nl": "Piéton",
    "operator": "NMBS/SNCB",
    "public_transport": "station",
    "railway": "station",
    "railway:ref": "LPT",
    "train": "yes",
    "uic_ref": "8871415",
    "website": "http://www.belgianrail.be/fr/gares/recherche-gares/19/pieton.aspx",
    "wikidata": "Q3097276",
    "wikipedia": "fr:Gare de Piéton"
  }
},
{
  "type": "node",
  "id": 6348185815,
  "lat": 50.4656685,
  "lon": 4.1882188,
  "tags": {
    "name": "La Louvière-Sud",
    "operator": "NMBS/SNCB",
    "public_transport": "station",
    "railway": "station",
    "railway:ref": "LVRS",
    "uic_ref": "8882206",
    "website": "http://www.belgianrail.be/fr/gares/recherche-gares/19/lalouviere-sud.aspx",
    "wikidata": "Q2132655",
    "wikipedia": "fr:Gare de La Louvière-Sud"
  }
},
{
  "type": "node",
  "id": 6359993170,
  "lat": 50.5621560,
  "lon": 4.1569013,
  "tags": {
    "internet_access": "no",
    "name": "Écaussinnes",
    "name:nl": "Écaussinnes",
    "operator": "NMBS/SNCB",
    "public_transport": "station",
    "railway": "station",
    "railway:ref": "FCS",
    "train": "yes",
    "uic_ref": "8883212",
    "website": "http://www.belgianrail.be/fr/gares/recherche-gares/19/ecaussinnes.aspx",
    "wikidata": "Q1819726",
    "wikipedia": "fr:Gare d'Écaussinnes"
  }
},
{
  "type": "node",
  "id": 6360111540,
  "lat": 50.4698406,
  "lon": 4.0072593,
  "tags": {
    "name": "Obourg",
    "name:nl": "Obourg",
    "operator": "NMBS/SNCB",
    "public_transport": "station",
    "railway": "station",
    "railway:ref": "LRG",
    "train": "yes",
    "uic_ref": "8881406",
    "website": "http://www.belgianrail.be/fr/gares/recherche-gares/19/obourg.aspx",
    "wikidata": "Q2169820",
    "wikipedia": "fr:Gare d'Obourg"
  }
},
{
  "type": "node",
  "id": 6360374596,
  "lat": 50.4540439,
  "lon": 3.9419654,
  "tags": {
    "name": "Mons",
    "name:fr": "Mons",
    "name:nl": "Bergen",
    "operator": "NMBS/SNCB",
    "public_transport": "station",
    "railway": "station",
    "railway:ref": "FMS",
    "train": "yes",
    "uic_ref": "8881000",
    "website": "http://www.belgianrail.be/fr/gares/recherche-gares/20/mons.aspx",
    "wheelchair": "yes",
    "wikidata": "Q3097068",
    "wikipedia": "fr:Gare de Mons"
  }
},
{
  "type": "node",
  "id": 6360708248,
  "lat": 50.4102217,
  "lon": 3.6866711,
  "tags": {
    "name": "Quiévrain",
    "name:nl": "Quiévrain",
    "operator": "NMBS/SNCB",
    "public_transport": "station",
    "railway": "station",
    "railway:ref": "FQ",
    "train": "yes",
    "uic_ref": "8884335",
    "website": "http://www.belgianrail.be/fr/gares/recherche-gares/20/quievrain.aspx",
    "wikidata": "Q3097372",
    "wikipedia": "fr:Gare de Quiévrain"
  }
},
{
  "type": "node",
  "id": 6360977251,
  "lat": 50.4428284,
  "lon": 3.8191781,
  "tags": {
    "addr:city": "Saint-Ghislain",
    "addr:housenumber": "56",
    "addr:postcode": "7330",
    "addr:street": "Place Albert-Elisabeth",
    "internet_access": "no",
    "name": "Saint-Ghislain",
    "name:nl": "Saint-Ghislain",
    "operator": "NMBS/SNCB",
    "public_transport": "station",
    "railway": "station",
    "railway:ref": "FGH",
    "start_date": "1842-08-07",
    "train": "yes",
    "uic_ref": "8884004",
    "website": "http://www.belgianrail.be/fr/gares/recherche-gares/20/saint-ghislain.aspx",
    "wikidata": "Q3097536",
    "wikipedia": "fr:Gare de Saint-Ghislain"
  }
},
{
  "type": "node",
  "id": 6363460509,
  "lat": 50.3914008,
  "lon": 3.9112354,
  "tags": {
    "name": "Genly",
    "name:nl": "Genly",
    "operator": "NMBS/SNCB",
    "public_transport": "station",
    "railway": "station",
    "railway:ref": "MLY",
    "train": "yes",
    "uic_ref": "8881562",
    "website": "http://www.belgianrail.be/fr/gares/recherche-gares/20/genly.aspx",
    "wikidata": "Q1822497",
    "wikipedia": "fr:Gare de Genly"
  }
},
{
  "type": "node",
  "id": 6363460603,
  "lat": 50.3413891,
  "lon": 3.9092414,
  "tags": {
    "name": "Quévy",
    "name:nl": "Quévy",
    "operator": "NMBS/SNCB",
    "public_transport": "station",
    "railway": "station",
    "railway:ref": "LQV",
    "train": "yes",
    "uic_ref": "8881505",
    "website": "http://www.belgianrail.be/fr/gares/recherche-gares/20/quevy.aspx",
    "wikidata": "Q2441411",
    "wikipedia": "fr:Gare de Quévy"
  }
},
{
  "type": "node",
  "id": 7072155262,
  "lat": 50.6127766,
  "lon": 3.3967614,
  "tags": {
    "name": "Tournai",
    "name:la": "Tornacum",
    "name:nl": "Doornik",
    "operator": "NMBS/SNCB",
    "public_transport": "station",
    "railway": "station",
    "railway:ref": "FTY",
    "train": "yes",
    "uic_ref": "8885001",
    "website": "http://www.belgianrail.be/fr/gares/recherche-gares/20/tournai.aspx",
    "wikidata": "Q283437",
    "wikipedia": "fr:Gare de Tournai"
  }
},
{
  "type": "node",
  "id": 7072164180,
  "lat": 50.7130521,
  "lon": 3.8368730,
  "tags": {
    "name": "Lessines",
    "name:nl": "Lessen",
    "operator": "NMBS/SNCB",
    "public_transport": "station",
    "railway": "station",
    "railway:ref": "FLN",
    "train": "yes",
    "uic_ref": "8886504",
    "website": "http://www.belgianrail.be/fr/gares/recherche-gares/20/lessines.aspx",
    "wikidata": "Q2139525",
    "wikipedia": "fr:Gare de Lessines"
  }
},
{
  "type": "node",
  "id": 7072182304,
  "lat": 50.6512780,
  "lon": 4.1764473,
  "tags": {
    "name": "Hennuyères",
    "name:nl": "Hennuyères",
    "operator": "NMBS/SNCB",
    "public_transport": "station",
    "railway": "station",
    "railway:ref": "FNY",
    "train": "yes",
    "uic_ref": "8883022",
    "website": "http://www.belgianrail.be/fr/gares/recherche-gares/20/hennuyeres.aspx",
    "wikidata": "Q2089017",
    "wikipedia": "fr:Gare de Hennuyères"
  }
},
{
  "type": "node",
  "id": 7072200482,
  "lat": 50.7659519,
  "lon": 4.2733784,
  "tags": {
    "name": "Lot",
    "operator": "NMBS/SNCB",
    "operator:wikidata": "Q524255",
    "public_transport": "station",
    "railway": "station",
    "railway:ref": "LOT",
    "train": "yes",
    "uic_ref": "8814357",
    "wikidata": "Q1824209",
    "wikipedia": "nl:Station Lot",
    "zone:Brupass": "XL"
  }
},
{
  "type": "node",
  "id": 7072202031,
  "lat": 50.6917872,
  "lon": 4.2056101,
  "tags": {
    "name": "Tubize",
    "name:nl": "Tubeke",
    "operator": "NMBS/SNCB",
    "public_transport": "station",
    "railway": "station",
    "railway:ref": "FTZ",
    "train": "yes",
    "uic_ref": "8883808",
    "website": "http://www.belgianrail.be/fr/gares/recherche-gares/20/tubize.aspx",
    "wikidata": "Q2293791",
    "wikipedia": "fr:Gare de Tubize"
  }
},
{
  "type": "node",
  "id": 7072204237,
  "lat": 50.8078159,
  "lon": 4.3083756,
  "tags": {
    "addr:country": "BE",
    "name": "Forest-Midi - Vorst-Zuid",
    "name:fr": "Forest-Midi",
    "name:nl": "Vorst-Zuid",
    "operator": "NMBS/SNCB",
    "public_transport": "station",
    "railway": "station",
    "railway:ref": "FO",
    "uic_ref": "8814373",
    "wheelchair": "no",
    "wikidata": "Q952542",
    "wikipedia": "fr:Gare de Forest-Midi"
  }
},
{
  "type": "node",
  "id": 7072212783,
  "lat": 51.1281383,
  "lon": 3.3294877,
  "tags": {
    "name": "Beernem",
    "operator": "NMBS/SNCB",
    "operator:wikidata": "Q524255",
    "public_transport": "station",
    "railway": "station",
    "railway:ref": "LBM",
    "train": "yes",
    "wikidata": "Q2090018"
  }
},
{
  "type": "node",
  "id": 7072219492,
  "lat": 50.5301226,
  "lon": 3.9103810,
  "tags": {
    "name": "Jurbise",
    "name:nl": "Jurbeke",
    "operator": "NMBS/SNCB",
    "public_transport": "station",
    "railway": "station",
    "railway:ref": "FJR",
    "train": "yes",
    "uic_ref": "8881166",
    "website": "http://www.belgianrail.be/fr/gares/recherche-gares/20/jurbise.aspx",
    "wheelchair": "yes",
    "wikidata": "Q2048462",
    "wikipedia": "fr:Gare de Jurbise"
  }
},
{
  "type": "node",
  "id": 7072245726,
  "lat": 50.7910623,
  "lon": 4.2949713,
  "tags": {
    "name": "Ruisbroek",
    "operator": "NMBS/SNCB",
    "operator:wikidata": "Q524255",
    "public_transport": "station",
    "railway": "station",
    "railway:ref": "FRB",
    "train": "yes",
    "uic_ref": "8814365",
    "wikidata": "Q2509613",
    "wikipedia": "nl:Station Ruisbroek",
    "zone:Brupass": "XL"
  }
},
{
  "type": "node",
  "id": 7072255873,
  "lat": 51.0473433,
  "lon": 3.6544322,
  "tags": {
    "name": "Drongen",
    "operator": "NMBS/SNCB",
    "operator:wikidata": "Q524255",
    "public_transport": "station",
    "railway": "station",
    "railway:ref": "FDO",
    "train": "yes",
    "wikidata": "Q2297616",
    "wikipedia": "nl:Station Drongen"
  }
},
{
  "type": "node",
  "id": 7072257971,
  "lat": 51.0731867,
  "lon": 3.5359264,
  "tags": {
    "name": "Hansbeke",
    "operator": "NMBS/SNCB",
    "operator:wikidata": "Q524255",
    "public_transport": "station",
    "railway": "station",
    "railway:ref": "FHK",
    "train": "yes",
    "wheelchair": "yes",
    "wikidata": "Q2688151"
  }
},
{
  "type": "node",
  "id": 7072260984,
  "lat": 51.0834224,
  "lon": 3.4887657,
  "tags": {
    "name": "Bellem",
    "operator": "NMBS/SNCB",
    "operator:wikidata": "Q524255",
    "public_transport": "station",
    "railway": "station",
    "railway:ref": "FEB",
    "train": "yes",
    "wikidata": "Q2417603",
    "wikipedia": "nl:Station Bellem"
  }
},
{
  "type": "node",
  "id": 7072265390,
  "lat": 51.0645747,
  "lon": 3.5754792,
  "tags": {
    "name": "Landegem",
    "operator": "NMBS/SNCB",
    "operator:wikidata": "Q524255",
    "public_transport": "station",
    "railway": "station",
    "railway:ref": "FLM",
    "train": "yes",
    "wikidata": "Q1818284",
    "wikipedia": "nl:Station Landegem"
  }
},
{
  "type": "node",
  "id": 7072271646,
  "lat": 51.1081407,
  "lon": 3.3851815,
  "tags": {
    "name": "Maria-Aalter",
    "operator": "NMBS/SNCB",
    "operator:wikidata": "Q524255",
    "public_transport": "station",
    "railway": "station",
    "railway:ref": "FIA",
    "train": "yes",
    "uic_ref": "8891132",
    "wikidata": "Q2417780"
  }
},
{
  "type": "node",
  "id": 7072274498,
  "lat": 51.1543780,
  "lon": 3.2573187,
  "tags": {
    "name": "Oostkamp",
    "operator": "NMBS/SNCB",
    "operator:wikidata": "Q524255",
    "public_transport": "station",
    "railway": "station",
    "railway:ref": "FPO",
    "train": "yes",
    "uic_ref": "8891116",
    "wikidata": "Q2589968",
    "wikipedia": "nl:Station Oostkamp"
  }
},
{
  "type": "node",
  "id": 7088051898,
  "lat": 50.5732355,
  "lon": 4.0691915,
  "tags": {
    "name": "Soignies",
    "name:nl": "Zinnik",
    "operator": "NMBS/SNCB",
    "public_transport": "station",
    "railway": "station",
    "railway:ref": "FSG",
    "train": "yes",
    "uic_ref": "8883113",
    "website": "http://www.belgianrail.be/fr/gares/recherche-gares/20/soignies.aspx",
    "wikidata": "Q1868452",
    "wikipedia": "fr:Gare de Soignies"
  }
},
{
  "type": "node",
  "id": 7106577481,
  "lat": 50.7337393,
  "lon": 4.2404904,
  "tags": {
    "name": "Halle",
    "name:fr": "Hal",
    "operator": "NMBS/SNCB",
    "operator:wikidata": "Q524255",
    "public_transport": "station",
    "railway": "station",
    "railway:ref": "FH",
    "train": "yes",
    "uic_ref": "8814308",
    "wheelchair": "limited",
    "wikidata": "Q2549821",
    "wikipedia": "nl:Station Halle (België)"
  }
},
{
  "type": "node",
  "id": 7122715807,
  "lat": 50.6272020,
  "lon": 3.7771666,
  "tags": {
    "name": "Ath",
    "name:nl": "Aat",
    "operator": "NMBS/SNCB",
    "public_transport": "station",
    "railway": "station",
    "railway:ref": "ATH",
    "train": "yes",
    "uic_ref": "8886009"
  }
},
{
  "type": "node",
  "id": 7129248830,
  "lat": 50.6003802,
  "lon": 3.6169913,
  "tags": {
    "name": "Leuze",
    "operator": "NMBS/SNCB",
    "public_transport": "station",
    "railway": "station",
    "railway:ref": "FLZ",
    "train": "yes",
    "uic_ref": "8886348",
    "website": "http://www.belgianrail.be/fr/gares/recherche-gares/20/leuze.aspx",
    "wikidata": "Q2226990",
    "wikipedia": "fr:Gare de Leuze"
  }
},
{
  "type": "node",
  "id": 7140841728,
  "lat": 50.5053150,
  "lon": 3.6662236,
  "tags": {
    "name": "Blaton",
    "name:nl": "Blaton",
    "operator": "NMBS/SNCB",
    "public_transport": "station",
    "railway": "station",
    "railway:ref": "LLT",
    "train": "yes",
    "uic_ref": "8884715",
    "website": "http://www.belgianrail.be/fr/gares/recherche-gares/20/blaton.aspx",
    "wikidata": "Q2326107",
    "wikipedia": "fr:Gare de Blaton"
  }
},
{
  "type": "node",
  "id": 7164733853,
  "lat": 50.5941625,
  "lon": 3.8523292,
  "tags": {
    "name": "Brugelette",
    "name:nl": "Brugelette",
    "operator": "NMBS/SNCB",
    "public_transport": "station",
    "railway": "station",
    "railway:ref": "FBG",
    "train": "yes",
    "uic_ref": "8886066",
    "website": "http://www.belgianrail.be/fr/gares/recherche-gares/20/brugelette.aspx",
    "wikidata": "Q2796893",
    "wikipedia": "fr:Gare de Brugelette"
  }
},
{
  "type": "node",
  "id": 7170188405,
  "lat": 50.7028003,
  "lon": 3.8351800,
  "tags": {
    "name": "Houraing",
    "name:nl": "Houraing",
    "operator": "NMBS/SNCB",
    "public_transport": "station",
    "railway": "station",
    "railway:ref": "MHG",
    "train": "yes",
    "uic_ref": "8886553",
    "website": "http://www.belgianrail.be/fr/gares/recherche-gares/20/houraing.aspx",
    "wheelchair": "yes",
    "wikidata": "Q2506668",
    "wikipedia": "fr:Gare de Houraing"
  }
},
{
  "type": "node",
  "id": 7181505776,
  "lat": 50.7702738,
  "lon": 3.8722631,
  "tags": {
    "name": "Geraardsbergen",
    "name:fr": "Grammont",
    "public_transport": "station",
    "railway": "station",
    "railway:ref": "FGRA",
    "train": "yes",
    "uic_ref": "8895505",
    "wheelchair": "limited",
    "wikidata": "Q2515358",
    "wikipedia": "nl:Station Geraardsbergen"
  }
},
{
  "type": "node",
  "id": 7209134042,
  "lat": 50.8688767,
  "lon": 3.8141938,
  "tags": {
    "name": "Zottegem",
    "operator": "NMBS/SNCB",
    "operator:wikidata": "Q524255",
    "public_transport": "station",
    "railway": "station",
    "railway:ref": "FZT",
    "train": "yes",
    "wheelchair": "no",
    "wikidata": "Q750872",
    "wikipedia": "nl:Station Zottegem"
  }
},
{
  "type": "node",
  "id": 7216069540,
  "lat": 51.3571370,
  "lon": 4.6329988,
  "tags": {
    "name": "Noorderkempen",
    "operator": "NMBS/SNCB",
    "operator:wikidata": "Q524255",
    "public_transport": "station",
    "railway": "station",
    "railway:ref": "NDK",
    "railway:ref:NMBS_SNCB": "NDKMP",
    "train": "yes",
    "uic_ref": "8821105",
    "wheelchair": "yes",
    "wikidata": "Q1916027",
    "wikipedia": "nl:Station Noorderkempen"
  }
},
{
  "type": "node",
  "id": 7216689571,
  "lat": 51.2613868,
  "lon": 4.4277621,
  "tags": {
    "name": "Antwerpen-Noorderdokken",
    "operator:wikidata": "Q524255",
    "public_transport": "station",
    "railway": "station",
    "railway:ref": "AND",
    "train": "yes",
    "wheelchair": "no",
    "wikidata": "Q800393",
    "wikipedia": "nl:Station Antwerpen-Noorderdokken"
  }
},
{
  "type": "node",
  "id": 7216689580,
  "lat": 51.2443580,
  "lon": 4.4248923,
  "tags": {
    "name": "Antwerpen-Luchtbal",
    "operator:wikidata": "Q524255",
    "public_transport": "station",
    "railway": "station",
    "railway:ref": "LB",
    "train": "yes",
    "uic_ref": "8821063",
    "wikidata": "Q800391",
    "wikipedia": "nl:Station Antwerpen-Luchtbal"
  }
},
{
  "type": "node",
  "id": 7234066119,
  "lat": 50.9069358,
  "lon": 3.9209282,
  "tags": {
    "name": "Burst",
    "operator": "NMBS/SNCB",
    "operator:wikidata": "Q524255",
    "public_transport": "station",
    "railway": "station",
    "railway:ref": "FRU",
    "train": "yes",
    "wikidata": "Q14385724",
    "wikipedia": "nl:Station Burst"
  }
},
{
  "type": "node",
  "id": 7236631369,
  "lat": 50.7422548,
  "lon": 3.6017789,
  "tags": {
    "name": "Ronse - Renaix",
    "operator": "NMBS/SNCB",
    "operator:wikidata": "Q524255",
    "public_transport": "station",
    "railway": "station",
    "railway:ref": "FRN",
    "train": "yes",
    "wheelchair": "no",
    "wikidata": "Q2227924",
    "wikipedia": "nl:Station Ronse"
  }
},
{
  "type": "node",
  "id": 7236721442,
  "lat": 50.9080352,
  "lon": 3.6463103,
  "tags": {
    "name": "Zingem",
    "public_transport": "station",
    "railway": "station",
    "railway:ref": "FZG",
    "train": "yes",
    "wikidata": "Q2652325"
  }
},
{
  "type": "node",
  "id": 7236964210,
  "lat": 50.9292029,
  "lon": 3.6400103,
  "tags": {
    "name": "Gavere-Asper",
    "public_transport": "station",
    "railway": "station",
    "railway:ref": "FGA",
    "train": "yes",
    "wikidata": "Q2343950"
  }
},
{
  "type": "node",
  "id": 7243258290,
  "lat": 50.8676818,
  "lon": 4.4008547,
  "tags": {
    "name": "Evere",
    "name:etymology:wikidata": "Q321718",
    "operator": "NMBS/SNCB",
    "public_transport": "station",
    "railway": "station",
    "train": "yes",
    "uic_ref": "8800231",
    "wheelchair": "no",
    "wikidata": "Q2969853",
    "wikipedia": "fr:Gare d'Evere"
  }
},
{
  "type": "node",
  "id": 7253672907,
  "lat": 50.9586694,
  "lon": 4.4577402,
  "tags": {
    "name": "Eppegem",
    "operator": "NMBS/SNCB",
    "operator:wikidata": "Q524255",
    "public_transport": "station",
    "railway": "station",
    "train": "yes"
  }
},
{
  "type": "node",
  "id": 7253672929,
  "lat": 50.9245857,
  "lon": 4.4327691,
  "tags": {
    "name": "Vilvoorde",
    "name:fr": "Vilvorde",
    "operator": "NMBS/SNCB",
    "operator:wikidata": "Q524255",
    "public_transport": "station",
    "railway": "station",
    "train": "yes",
    "wikidata": "Q3166079",
    "wikipedia": "nl:Station Vilvoorde",
    "zone:Brupass": "XL"
  }
},
{
  "type": "node",
  "id": 7253672949,
  "lat": 50.9081115,
  "lon": 4.4176319,
  "tags": {
    "name": "Buda",
    "operator": "NMBS/SNCB",
    "operator:wikidata": "Q524255",
    "public_transport": "station",
    "railway": "station",
    "railway:ref": "BUDA",
    "train": "yes",
    "wikidata": "Q2621086",
    "wikipedia": "nl:Station Buda",
    "zone:Brupass": "XL"
  }
},
{
  "type": "node",
  "id": 7259032381,
  "lat": 50.9777709,
  "lon": 4.4714015,
  "tags": {
    "addr:street": "Stationsplein",
    "name": "Weerde",
    "operator": "NMBS/SNCB",
    "operator:wikidata": "Q524255",
    "public_transport": "station",
    "railway": "station",
    "train": "yes",
    "wikidata": "Q2036100",
    "wikipedia": "nl:Station Weerde"
  }
},
{
  "type": "node",
  "id": 7261826893,
  "lat": 51.0913781,
  "lon": 4.4928744,
  "tags": {
    "name": "Duffel",
    "operator": "NMBS/SNCB",
    "operator:wikidata": "Q524255",
    "public_transport": "station",
    "railway": "station",
    "railway:ref": "FDF",
    "train": "yes",
    "wikidata": "Q2070235",
    "wikipedia": "nl:Station Duffel"
  }
},
{
  "type": "node",
  "id": 7261826896,
  "lat": 51.0706591,
  "lon": 4.4958343,
  "tags": {
    "name": "Sint-Katelijne-Waver",
    "name:fr": "Wavre-Sainte-Catherine",
    "public_transport": "station",
    "railway": "station",
    "railway:ref": "FWA",
    "train": "yes",
    "wikidata": "Q3921076",
    "wikipedia": "nl:Station Sint-Katelijne-Waver"
  }
},
{
  "type": "node",
  "id": 7261826908,
  "lat": 51.0302855,
  "lon": 4.4902298,
  "tags": {
    "name": "Mechelen-Nekkerspoel",
    "name:fr": "Malines-Nekkerspoel",
    "operator": "NMBS/SNCB",
    "operator:wikidata": "Q524255",
    "public_transport": "station",
    "railway": "station",
    "railway:ref": "LNK",
    "train": "yes",
    "uic_ref": "8822343",
    "wikidata": "Q2288688",
    "wikipedia": "nl:Station Mechelen-Nekkerspoel"
  }
},
{
  "type": "node",
  "id": 7267350033,
  "lat": 51.1823493,
  "lon": 4.4471917,
  "tags": {
    "name": "Mortsel-Deurnesteenweg",
    "operator:wikidata": "Q524255",
    "public_transport": "station",
    "railway": "station",
    "railway:ref": "GMOD",
    "train": "yes",
    "wikidata": "Q2846639",
    "wikipedia": "nl:Station Mortsel-Deurnesteenweg"
  }
},
{
  "type": "node",
  "id": 7267350074,
  "lat": 51.1711434,
  "lon": 4.4557851,
  "tags": {
    "name": "Mortsel-Oude-God",
    "operator": "NMBS/SNCB",
    "operator:wikidata": "Q524255",
    "public_transport": "station",
    "railway": "station",
    "railway:ref": "GMOG",
    "train": "yes",
    "wikidata": "Q2128736",
    "wikipedia": "nl:Station Mortsel-Oude-God"
  }
},
{
  "type": "node",
  "id": 7267350785,
  "lat": 51.1533777,
  "lon": 4.4655959,
  "tags": {
    "name": "Hove",
    "operator": "NMBS/SNCB",
    "operator:wikidata": "Q524255",
    "public_transport": "station",
    "railway": "station",
    "railway:ref": "MHO",
    "train": "yes",
    "wheelchair": "no",
    "wikidata": "Q2511105",
    "wikipedia": "nl:Station Hove (België)"
  }
},
{
  "type": "node",
  "id": 7267350804,
  "lat": 51.1339492,
  "lon": 4.4766500,
  "tags": {
    "name": "Kontich-Lint",
    "operator": "NMBS/SNCB",
    "operator:wikidata": "Q524255",
    "public_transport": "station",
    "railway": "station",
    "railway:ref": "FKI",
    "train": "yes",
    "wikidata": "Q2801243",
    "wikipedia": "nl:Station Kontich"
  }
},
{
  "type": "node",
  "id": 7272811038,
  "lat": 51.1997015,
  "lon": 4.4323348,
  "tags": {
    "iata": "ZYZ",
    "name": "Antwerpen-Berchem",
    "name:fr": "Anvers-Berchem",
    "public_transport": "station",
    "railway": "station",
    "railway:ref": "FCV",
    "train": "yes",
    "wheelchair": "yes",
    "wikidata": "Q800387",
    "wikipedia": "nl:Station Antwerpen-Berchem"
  }
},
{
  "type": "node",
  "id": 7299178958,
  "lat": 50.7400821,
  "lon": 3.2274737,
  "tags": {
    "name": "Mouscron - Moeskroen",
    "name:nl": "Moeskroen",
    "operator": "NMBS/SNCB",
    "public_transport": "station",
    "railway": "station",
    "railway:ref": "FMC",
    "train": "yes",
    "uic_ref": "8885704",
    "website": "http://www.belgianrail.be/fr/gares/recherche-gares/20/mouscron.aspx",
    "wikidata": "Q3097128",
    "wikipedia": "fr:Gare de Mouscron"
  }
},
{
  "type": "node",
  "id": 7306660825,
  "lat": 50.9781527,
  "lon": 3.5350698,
  "tags": {
    "name": "Deinze",
    "name:fr": "Deinze",
    "operator": "NMBS/SNCB",
    "public_transport": "station",
    "railway": "station",
    "train": "yes",
    "website": "http://www.belgianrail.be/fr/gares/recherche-gares/11/deinze.aspx",
    "wheelchair": "yes",
    "wikidata": "Q729472",
    "wikipedia": "fr:Gare de Deinze"
  }
},
{
  "type": "node",
  "id": 7310113505,
  "lat": 50.9904250,
  "lon": 3.3296225,
  "tags": {
    "name": "Tielt",
    "name:ar": "تيلت",
    "operator": "NMBS/SNCB",
    "operator:wikidata": "Q524255",
    "public_transport": "station",
    "railway": "station",
    "railway:ref": "FTT",
    "train": "yes",
    "wikidata": "Q2675511",
    "wikipedia": "nl:Station Tielt"
  }
},
{
  "type": "node",
  "id": 7313242380,
  "lat": 51.0327340,
  "lon": 2.8692705,
  "tags": {
    "name": "Diksmuide",
    "operator": "NMBS/SNCB",
    "operator:wikidata": "Q524255",
    "public_transport": "station",
    "railway": "station",
    "railway:ref": "FIK",
    "train": "yes",
    "wikidata": "Q2431799",
    "wikipedia": "nl:Station Diksmuide"
  }
},
{
  "type": "node",
  "id": 7314816866,
  "lat": 51.0790752,
  "lon": 2.6530273,
  "tags": {
    "name": "Koksijde",
    "name:fr": "Coxyde",
    "operator": "NMBS/SNCB",
    "operator:wikidata": "Q524255",
    "public_transport": "station",
    "railway": "station",
    "railway:ref": "MX",
    "train": "yes",
    "wikidata": "Q526990",
    "wikipedia": "nl:Station Koksijde"
  }
},
{
  "type": "node",
  "id": 7314829304,
  "lat": 51.0738537,
  "lon": 2.6703007,
  "tags": {
    "name": "Veurne",
    "name:fr": "Furnes",
    "operator": "NMBS/SNCB",
    "operator:wikidata": "Q524255",
    "public_transport": "station",
    "railway": "station",
    "railway:ref": "FVU",
    "train": "yes",
    "wikidata": "Q3096503",
    "wikipedia": "nl:Station Veurne"
  }
},
{
  "type": "node",
  "id": 7332212663,
  "lat": 51.0647908,
  "lon": 3.1057340,
  "tags": {
    "name": "Torhout",
    "operator": "NMBS/SNCB",
    "operator:wikidata": "Q524255",
    "public_transport": "station",
    "railway": "station",
    "railway:ref": "FRT",
    "train": "yes"
  }
},
{
  "type": "node",
  "id": 7332857770,
  "lat": 51.1266218,
  "lon": 3.1636812,
  "tags": {
    "name": "Zedelgem",
    "operator": "NMBS/SNCB",
    "public_transport": "station",
    "railway": "station",
    "railway:ref": "LZM",
    "train": "yes",
    "uic_ref": "8891264",
    "wikidata": "Q2752064"
  }
},
{
  "type": "node",
  "id": 7335760697,
  "lat": 50.9747763,
  "lon": 4.1871777,
  "tags": {
    "name": "Opwijk",
    "operator:wikidata": "Q524255",
    "public_transport": "station",
    "railway": "station",
    "train": "yes",
    "wikidata": "Q2963496",
    "wikipedia": "nl:Station Opwijk"
  }
},
{
  "type": "node",
  "id": 7339999848,
  "lat": 50.8809447,
  "lon": 4.3282081,
  "tags": {
    "name": "Jette",
    "operator": "NMBS/SNCB",
    "operator:wikidata": "Q524255",
    "public_transport": "station",
    "railway": "station",
    "train": "yes",
    "uic_ref": "8800070",
    "wheelchair": "yes",
    "wikidata": "Q2745256",
    "wikipedia": "fr:Gare de Jette",
    "wikipedia:fr": "Gare de Jette",
    "wikipedia:nl": "Station Jette"
  }
},
{
  "type": "node",
  "id": 7359338065,
  "lat": 51.1695282,
  "lon": 4.4691651,
  "tags": {
    "name": "Mortsel-Liersesteenweg",
    "operator:wikidata": "Q524255",
    "public_transport": "station",
    "railway": "station",
    "railway:ref": "GMOL",
    "train": "yes",
    "wikidata": "Q2136907",
    "wikipedia": "nl:Station Mortsel-Liersesteenweg"
  }
},
{
  "type": "node",
  "id": 7359586102,
  "lat": 51.1829808,
  "lon": 4.4486143,
  "tags": {
    "name": "Mortsel",
    "operator:wikidata": "Q524255",
    "public_transport": "station",
    "railway": "station",
    "railway:ref": "GMO",
    "train": "yes",
    "wikidata": "Q6915000",
    "wikipedia": "nl:Station Mortsel"
  }
},
{
  "type": "node",
  "id": 7366110667,
  "lat": 50.9884748,
  "lon": 4.4983144,
  "tags": {
    "name": "Hofstade",
    "operator:wikidata": "Q524255",
    "public_transport": "station",
    "railway": "station",
    "railway:ref": "FHF",
    "train": "yes",
    "wikidata": "Q2493903",
    "wikipedia": "nl:Station Hofstade"
  }
},
{
  "type": "node",
  "id": 7390621895,
  "lat": 51.0664347,
  "lon": 4.3560247,
  "tags": {
    "name": "Willebroek",
    "operator": "NMBS/SNCB",
    "operator:wikidata": "Q524255",
    "public_transport": "station",
    "railway": "station",
    "railway:ref": "FWB",
    "ref": "1",
    "train": "yes",
    "wikidata": "Q2442412",
    "wikipedia": "nl:Station Willebroek"
  }
},
{
  "type": "node",
  "id": 7391633116,
  "lat": 51.0993795,
  "lon": 4.2400736,
  "tags": {
    "name": "Bornem",
    "public_transport": "station",
    "railway": "station",
    "railway:ref": "LOB",
    "train": "yes",
    "wikidata": "Q2231970",
    "wikipedia": "nl:Station Bornem"
  }
},
{
  "type": "node",
  "id": 7391633177,
  "lat": 51.0772325,
  "lon": 4.2828146,
  "tags": {
    "name": "Puurs",
    "operator": "NMBS/SNCB",
    "operator:wikidata": "Q524255",
    "public_transport": "station",
    "railway": "station",
    "railway:ref": "FRP",
    "train": "yes",
    "wikidata": "Q1820790",
    "wikipedia": "nl:Station Puurs"
  }
},
{
  "type": "node",
  "id": 7391741770,
  "lat": 51.1719944,
  "lon": 4.1441842,
  "tags": {
    "name": "Sint-Niklaas",
    "name:fr": "Saint-Nicolas",
    "operator": "NMBS/SNCB",
    "public_transport": "station",
    "railway": "station",
    "railway:ref": "FSN",
    "train": "yes",
    "wheelchair": "yes",
    "wikidata": "Q1907355",
    "wikipedia": "nl:Station Sint-Niklaas"
  }
},
{
  "type": "node",
  "id": 7391744403,
  "lat": 51.1261150,
  "lon": 4.2211479,
  "tags": {
    "name": "Temse",
    "public_transport": "station",
    "railway": "station",
    "railway:ref": "FTS",
    "train": "yes",
    "wikidata": "Q2195482"
  }
},
{
  "type": "node",
  "id": 7394213288,
  "lat": 51.0810559,
  "lon": 4.3256858,
  "tags": {
    "name": "Ruisbroek-Sauvegarde",
    "public_transport": "station",
    "railway": "station",
    "railway:ref": "FRBS",
    "train": "yes",
    "wikidata": "Q1882840",
    "wikipedia": "nl:Station Ruisbroek-Sauvegarde"
  }
},
{
  "type": "node",
  "id": 7394315721,
  "lat": 51.1255250,
  "lon": 4.3402494,
  "tags": {
    "name": "Schelle",
    "public_transport": "station",
    "railway": "station",
    "railway:ref": "FC",
    "train": "yes",
    "wikidata": "Q1850441"
  }
},
{
  "type": "node",
  "id": 7394315746,
  "lat": 51.1114203,
  "lon": 4.3391318,
  "tags": {
    "name": "Niel",
    "operator": "NMBS/SNCB",
    "public_transport": "station",
    "railway": "station",
    "railway:ref": "LNI",
    "train": "yes",
    "wikidata": "Q5058460",
    "wikipedia": "nl:Station Niel"
  }
},
{
  "type": "node",
  "id": 7394315782,
  "lat": 51.0908512,
  "lon": 4.3603723,
  "tags": {
    "name": "Boom",
    "public_transport": "station",
    "railway": "station",
    "railway:ref": "FMB",
    "train": "yes",
    "wikidata": "Q2531617",
    "wikipedia": "nl:Station Boom"
  }
},
{
  "type": "node",
  "id": 7395943708,
  "lat": 51.1829663,
  "lon": 4.3483745,
  "tags": {
    "name": "Hoboken-Polder",
    "public_transport": "station",
    "railway": "station",
    "railway:ref": "FOE",
    "train": "yes",
    "wikidata": "Q2186964",
    "wikipedia": "nl:Station Hoboken-Polder"
  }
},
{
  "type": "node",
  "id": 7395943757,
  "lat": 51.1363324,
  "lon": 4.3385038,
  "tags": {
    "name": "Hemiksem",
    "public_transport": "station",
    "railway": "station",
    "railway:ref": "LKM",
    "train": "yes",
    "wikidata": "Q2596940",
    "wikipedia": "nl:Station Hemiksem"
  }
},
{
  "type": "node",
  "id": 7397978134,
  "lat": 51.2141489,
  "lon": 4.3306372,
  "tags": {
    "name": "Zwijndrecht",
    "network": "Train S Anvers",
    "network:wikidata": "Q56678096",
    "public_transport": "station",
    "railway": "station",
    "railway:ref": "LZD",
    "train": "yes",
    "wikidata": "Q2733471",
    "wikipedia": "nl:Station Zwijndrecht (België)"
  }
},
{
  "type": "node",
  "id": 7398182156,
  "lat": 51.1853722,
  "lon": 4.1852432,
  "tags": {
    "name": "Nieuwkerken-Waas",
    "operator": "NMBS/SNCB",
    "operator:wikidata": "Q524255",
    "public_transport": "station",
    "railway": "station",
    "railway:ref": "FNU",
    "train": "yes",
    "wikidata": "Q2579795",
    "wikipedia": "nl:Station Nieuwkerken-Waas"
  }
},
{
  "type": "node",
  "id": 7398182178,
  "lat": 51.2082712,
  "lon": 4.2597046,
  "tags": {
    "alt_name": "Beveren (Waas)",
    "name": "Beveren",
    "operator": "NMBS/SNCB",
    "operator:wikidata": "Q524255",
    "public_transport": "station",
    "railway": "station",
    "railway:ref": "FBR",
    "train": "yes",
    "wikidata": "Q1865803",
    "wikipedia": "nl:Station Beveren"
  }
},
{
  "type": "node",
  "id": 7398197229,
  "lat": 51.2107092,
  "lon": 4.2867883,
  "tags": {
    "name": "Melsele",
    "operator": "NMBS/SNCB",
    "operator:wikidata": "Q524255",
    "public_transport": "station",
    "railway": "station",
    "train": "yes",
    "wikidata": "Q2793118",
    "wikipedia": "nl:Station Melsele"
  }
},
{
  "type": "node",
  "id": 7398779690,
  "lat": 51.1432806,
  "lon": 4.0682164,
  "tags": {
    "name": "Sinaai",
    "operator": "NMBS/SNCB",
    "operator:wikidata": "Q524255",
    "public_transport": "station",
    "railway": "station",
    "railway:ref": "LSW",
    "train": "yes",
    "wikidata": "Q3188190",
    "wikipedia": "nl:Station Sinaai"
  }
},
{
  "type": "node",
  "id": 7439120741,
  "lat": 51.0890329,
  "lon": 3.7196081,
  "tags": {
    "name": "Wondelgem",
    "operator": "NMBS/SNCB",
    "operator:wikidata": "Q524255",
    "public_transport": "station",
    "railway": "station",
    "railway:ref": "FWO",
    "train": "yes",
    "wikidata": "Q2619109",
    "wikipedia": "nl:Station Wondelgem"
  }
},
{
  "type": "node",
  "id": 7442778959,
  "lat": 51.0386296,
  "lon": 3.7562885,
  "tags": {
    "name": "Gentbrugge",
    "operator": "NMBS/SNCB",
    "operator:wikidata": "Q524255",
    "public_transport": "station",
    "railway": "station",
    "railway:ref": "FUGE",
    "train": "yes",
    "wheelchair": "no",
    "wikidata": "Q2180210",
    "wikipedia": "nl:Station Gentbrugge"
  }
},
{
  "type": "node",
  "id": 7454739809,
  "lat": 50.8746359,
  "lon": 4.1658889,
  "tags": {
    "name": "Ternat",
    "operator": "NMBS/SNCB",
    "operator:wikidata": "Q524255",
    "public_transport": "station",
    "railway": "station",
    "railway:ref": "FTN",
    "train": "yes",
    "wikidata": "Q2339070",
    "wikipedia": "nl:Station Ternat"
  }
},
{
  "type": "node",
  "id": 7467997988,
  "lat": 51.0031021,
  "lon": 3.9209671,
  "tags": {
    "name": "Schellebelle",
    "public_transport": "station",
    "railway": "station",
    "railway:ref": "FCB",
    "train": "yes",
    "uic_ref": "8893542",
    "wikidata": "Q2159970"
  }
},
{
  "type": "node",
  "id": 7470496830,
  "lat": 51.0025419,
  "lon": 3.7973741,
  "tags": {
    "name": "Melle",
    "name:fr": "Melle",
    "operator": "NMBS/SNCB",
    "public_transport": "station",
    "railway": "station",
    "railway:ref": "FML",
    "train": "yes",
    "wikidata": "Q2332107",
    "wikipedia": "nl:Station Melle (België)"
  }
},
{
  "type": "node",
  "id": 7470496840,
  "lat": 50.9917177,
  "lon": 3.8289582,
  "tags": {
    "name": "Kwatrecht",
    "operator": "NMBS/SNCB",
    "operator:wikidata": "Q524255",
    "public_transport": "station",
    "railway": "station",
    "railway:ref": "GKA",
    "train": "yes",
    "wikidata": "Q2397828",
    "wikipedia": "nl:Station Kwatrecht"
  }
},
{
  "type": "node",
  "id": 7598205491,
  "lat": 51.2229830,
  "lon": 3.2018012,
  "tags": {
    "name": "Brugge-Sint-Pieters",
    "operator": "NMBS/SNCB",
    "operator:wikidata": "Q524255",
    "public_transport": "station",
    "railway": "station",
    "railway:ref": "FRSP",
    "train": "yes",
    "wikidata": "Q1911408"
  }
},
{
  "type": "node",
  "id": 7598316088,
  "lat": 51.2946825,
  "lon": 3.1944575,
  "tags": {
    "name": "Lissewege",
    "operator": "NMBS/SNCB",
    "operator:wikidata": "Q524255",
    "public_transport": "station",
    "railway": "station",
    "railway:ref": "FLW",
    "train": "yes",
    "wikidata": "Q3096894",
    "wikipedia": "nl:Station Lissewege"
  }
},
{
  "type": "node",
  "id": 7598463775,
  "lat": 51.3304591,
  "lon": 3.1841013,
  "tags": {
    "name": "Zeebrugge-Strand",
    "name:de": "Seebrügge-Strand",
    "operator": "NMBS/SNCB",
    "operator:wikidata": "Q524255",
    "public_transport": "station",
    "railway": "station",
    "railway:ref": "LZS",
    "train": "yes",
    "wheelchair": "yes",
    "wikidata": "Q1978037",
    "wikipedia": "nl:Station Zeebrugge-Strand"
  }
},
{
  "type": "node",
  "id": 8313215285,
  "lat": 50.8983436,
  "lon": 4.4823703,
  "tags": {
    "name": "Brussels Airport-Zaventem",
    "name:en": "Brussels Airport-Zaventem",
    "name:fr": "Brussels Airport-Zaventem",
    "operator": "NMBS/SNCB",
    "operator:wikidata": "Q524255",
    "public_transport": "station",
    "railway": "station",
    "ref": "FBNL",
    "uic_ref": "8819406",
    "website": "http://www.belgianrail.be/Station.ashx?lang=nl&stationId=8819406",
    "wikidata": "Q852880",
    "wikipedia": "nl:Station Brussels Airport-Zaventem"
  }
},
{
  "type": "node",
  "id": 9317376091,
  "lat": 50.6607315,
  "lon": 4.1333745,
  "tags": {
    "name": "Rebecq",
    "operator": "Le Rail Rebecq-Rognon",
    "public_transport": "station",
    "railway": "station",
    "train": "private",
    "usage": "tourism"
  }
},
{
  "type": "node",
  "id": 9317434736,
  "lat": 50.6519741,
  "lon": 4.1066823,
  "tags": {
    "name": "Rognon",
    "operator": "Le Rail Rebecq-Rognon",
    "public_transport": "station",
    "railway": "station",
    "train": "private",
    "usage": "tourism"
  }
},
{
  "type": "node",
  "id": 9794478411,
  "lat": 50.4728556,
  "lon": 5.6728703,
  "tags": {
    "name": "Aywaille",
    "name:lb": "Aywaille",
    "name:nl": "Aywaille",
    "name:ru": "Эвай",
    "operator": "NMBS/SNCB",
    "public_transport": "station",
    "railway": "station",
    "railway:ref": "MWL",
    "train": "yes",
    "uic_ref": "8842754",
    "website": "http://www.belgianrail.be/Station.ashx?lang=nl&stationId=8842754",
    "wikidata": "Q2568244",
    "wikipedia": "fr:Gare d'Aywaille"
  }
},
{
  "type": "node",
  "id": 10760025171,
  "lat": 50.5701844,
  "lon": 4.6911124,
  "tags": {
    "name": "Gembloux",
    "name:nl": "Gembloux",
    "operator": "NMBS/SNCB",
    "public_transport": "station",
    "railway": "station",
    "railway:ref": "LGB",
    "train": "yes",
    "uic_ref": "8861200",
    "website": "http://www.belgianrail.be/fr/gares/recherche-gares/14/gembloux.aspx",
    "wheelchair": "yes",
    "wikipedia": "fr:Gare de Gembloux"
  }
},
{
  "type": "node",
  "id": 10875958170,
  "lat": 51.1831167,
  "lon": 3.5726185,
  "tags": {
    "name": "Eeklo Oostveld",
    "operator": "Stoomtrein Maldegem-Eeklo",
    "operator:wikidata": "Q1852715",
    "public_transport": "station",
    "railway": "station",
    "train": "yes",
    "usage": "tourism"
  }
},
{
  "type": "node",
  "id": 11283649993,
  "lat": 50.8478545,
  "lon": 2.8765020,
  "tags": {
    "name": "Ieper",
    "name:fr": "Ypres",
    "operator": "NMBS/SNCB",
    "operator:wikidata": "Q524255",
    "public_transport": "station",
    "railway": "station",
    "railway:ref": "FI",
    "train": "yes",
    "wikidata": "Q2098094",
    "wikipedia": "nl:Station Ieper"
  }
},
{
  "type": "node",
  "id": 11718250773,
  "lat": 50.8013269,
  "lon": 4.3144068,
  "tags": {
    "name": "Forest-Saint-Georges",
    "network": "PTVF",
    "operator": "Le Petit Train à Vapeur de Forest",
    "public_transport": "station",
    "railway": "station",
    "train": "yes"
  }
},
{
  "type": "node",
  "id": 11729123916,
  "lat": 51.0816751,
  "lon": 2.5991893,
  "tags": {
    "image": "https://www.plopsalanddepanne.be/sites/default/files/public/styles/carousel_left/public/2023-10/plopsa_express_station_dorpsplein.jpg",
    "name": "Station Dorpsplein",
    "operator": "Plopsaland De Panne",
    "public_transport": "station",
    "railway": "station",
    "train": "yes",
    "website": "https://www.plopsalanddepanne.be/en/attractions/plopsa-express-town-square-station"
  }
},
{
  "type": "node",
  "id": 11729123917,
  "lat": 51.0787354,
  "lon": 2.5975421,
  "tags": {
    "name": "Station Heidiland",
    "operator": "Plopsaland De Panne",
    "public_transport": "station",
    "railway": "station",
    "train": "yes",
    "website": "https://www.plopsalanddepanne.be/en/attractions/plopsa-express-heidiland-station"
  }
},
{
  "type": "node",
  "id": 11729123918,
  "lat": 51.0821395,
  "lon": 2.5963457,
  "tags": {
    "name": "Station Wickieland",
    "operator": "Plopsaland De Panne",
    "public_transport": "station",
    "railway": "station",
    "train": "yes",
    "website": "https://www.plopsalanddepanne.be/en/attractions/plopsa-express-wickieland-station"
  }
},
{
  "type": "node",
  "id": 11729123919,
  "lat": 51.0803713,
  "lon": 2.5957167,
  "tags": {
    "image": "https://www.plopsalanddepanne.be/sites/default/files/public/styles/carousel_left/public/2023-10/plopsa_express_station_dorpsplein.jpg",
    "name": "Ketnet Station",
    "operator": "Plopsaland De Panne",
    "public_transport": "station",
    "railway": "station",
    "train": "yes",
    "website": "https://www.plopsalanddepanne.be/en/attractions/plopsa-express-ketnet-station"
  }
},
{
  "type": "way",
  "id": 530791721,
  "bounds": {
    "minlat": 50.3678779,
    "minlon": 4.8762736,
    "maxlat": 50.3698297,
    "maxlon": 4.8775779
  },
  "nodes": [
    2373177669,
    2373177666,
    5153490526,
    2373177668,
    2373177663,
    2373195773,
    2373195770,
    2373195756,
    2373195759,
    2373195750,
    2373195753,
    2373195744,
    2373195746,
    9790016357,
    10688045153,
    2373177654,
    2373177656,
    5153490523,
    2373177652,
    2373177658,
    9790016364,
    9790016363,
    9790016362,
    9790016361,
    9790016359,
    9790016365,
    9790016366,
    2373177669
  ],
  "geometry": [
    { "lat": 50.3698297, "lon": 4.8774054 },
    { "lat": 50.3698198, "lon": 4.8774583 },
    { "lat": 50.3697968, "lon": 4.8775459 },
    { "lat": 50.3697865, "lon": 4.8775779 },
    { "lat": 50.3694610, "lon": 4.8773961 },
    { "lat": 50.3691413, "lon": 4.8771910 },
    { "lat": 50.3691107, "lon": 4.8773162 },
    { "lat": 50.3689833, "lon": 4.8772407 },
    { "lat": 50.3689888, "lon": 4.8772180 },
    { "lat": 50.3688753, "lon": 4.8771504 },
    { "lat": 50.3688807, "lon": 4.8771288 },
    { "lat": 50.3688529, "lon": 4.8771138 },
    { "lat": 50.3688723, "lon": 4.8770408 },
    { "lat": 50.3688552, "lon": 4.8770402 },
    { "lat": 50.3687635, "lon": 4.8769830 },
    { "lat": 50.3678779, "lon": 4.8764674 },
    { "lat": 50.3678962, "lon": 4.8763988 },
    { "lat": 50.3679163, "lon": 4.8763230 },
    { "lat": 50.3679295, "lon": 4.8762736 },
    { "lat": 50.3686973, "lon": 4.8767306 },
    { "lat": 50.3687540, "lon": 4.8767353 },
    { "lat": 50.3688509, "lon": 4.8768021 },
    { "lat": 50.3688426, "lon": 4.8768333 },
    { "lat": 50.3689460, "lon": 4.8768961 },
    { "lat": 50.3689504, "lon": 4.8768798 },
    { "lat": 50.3689550, "lon": 4.8768646 },
    { "lat": 50.3691517, "lon": 4.8769888 },
    { "lat": 50.3698297, "lon": 4.8774054 }
  ],
  "tags": {
    "name": "Lustin",
    "name:nl": "Lustin",
    "operator": "NMBS/SNCB",
    "operator:wikidata": "Q524255",
    "public_transport": "station",
    "railway": "station",
    "train": "yes",
    "website": "http://www.belgianrail.be/fr/gares/recherche-gares/14/lustin.aspx",
    "wikidata": "Q2549896",
    "wikipedia": "fr:Gare de Lustin"
  }
},
{
  "type": "way",
  "id": 550302483,
  "bounds": {
    "minlat": 50.4536036,
    "minlon": 3.9405807,
    "maxlat": 50.4545990,
    "maxlon": 3.9429150
  },
  "nodes": [
    5709162589,
    7954858977,
    5709162590,
    5709162591,
    5709162592,
    7954858978,
    9745212599,
    5709162584,
    5709162585,
    5709162586,
    9745212597,
    5709162587,
    7954858979,
    5709162588,
    7954858963,
    7954858964,
    1164678451,
    5654327915,
    5654327916,
    5654330237,
    5654330238,
    5654330240,
    5654330241,
    5654327918,
    11152999869,
    5654330242,
    5654330243,
    5654330226,
    11152999871,
    5654330246,
    1164678455,
    5559698990,
    11152999872,
    5559698985,
    5559698987,
    5654330228,
    11152999875,
    5654330259,
    5654330230,
    11152999877,
    5315226557,
    5559692737,
    5559692738,
    5559692739,
    5559692736,
    9830878286,
    5559692735,
    5559692740,
    5559692734,
    5559692733,
    5559692732,
    5654330234,
    5315226558,
    5654330223,
    5654330257,
    5654330252,
    5654330221,
    5559698988,
    5559698986,
    5559698991,
    5654330249,
    5654330248,
    5654327919,
    5654330245,
    5654330244,
    5559692744,
    1696387998,
    4960366045,
    1696388013,
    1164678395,
    1164678664,
    5654330231,
    5654327914,
    9745129359,
    5654330232,
    7954858976,
    5709162589
  ],
  "geometry": [
    { "lat": 50.4543521, "lon": 3.9406331 },
    { "lat": 50.4543767, "lon": 3.9406084 },
    { "lat": 50.4544019, "lon": 3.9405921 },
    { "lat": 50.4544351, "lon": 3.9405835 },
    { "lat": 50.4544666, "lon": 3.9405807 },
    { "lat": 50.4544854, "lon": 3.9405861 },
    { "lat": 50.4545026, "lon": 3.9405909 },
    { "lat": 50.4545091, "lon": 3.9405927 },
    { "lat": 50.4545418, "lon": 3.9406209 },
    { "lat": 50.4545598, "lon": 3.9406418 },
    { "lat": 50.4545738, "lon": 3.9406623 },
    { "lat": 50.4545827, "lon": 3.9406792 },
    { "lat": 50.4545867, "lon": 3.9407062 },
    { "lat": 50.4545990, "lon": 3.9407891 },
    { "lat": 50.4545947, "lon": 3.9408453 },
    { "lat": 50.4545611, "lon": 3.9410047 },
    { "lat": 50.4544913, "lon": 3.9411870 },
    { "lat": 50.4544692, "lon": 3.9412493 },
    { "lat": 50.4544490, "lon": 3.9413020 },
    { "lat": 50.4543633, "lon": 3.9415359 },
    { "lat": 50.4543359, "lon": 3.9415986 },
    { "lat": 50.4543154, "lon": 3.9416508 },
    { "lat": 50.4542906, "lon": 3.9417121 },
    { "lat": 50.4542622, "lon": 3.9417819 },
    { "lat": 50.4542587, "lon": 3.9417900 },
    { "lat": 50.4542323, "lon": 3.9418526 },
    { "lat": 50.4542133, "lon": 3.9418996 },
    { "lat": 50.4541876, "lon": 3.9419653 },
    { "lat": 50.4541850, "lon": 3.9419723 },
    { "lat": 50.4541594, "lon": 3.9420379 },
    { "lat": 50.4541399, "lon": 3.9420863 },
    { "lat": 50.4541137, "lon": 3.9421557 },
    { "lat": 50.4541114, "lon": 3.9421612 },
    { "lat": 50.4540864, "lon": 3.9422189 },
    { "lat": 50.4540657, "lon": 3.9422701 },
    { "lat": 50.4540357, "lon": 3.9423523 },
    { "lat": 50.4540327, "lon": 3.9423605 },
    { "lat": 50.4539648, "lon": 3.9425457 },
    { "lat": 50.4539337, "lon": 3.9426335 },
    { "lat": 50.4539301, "lon": 3.9426431 },
    { "lat": 50.4538784, "lon": 3.9427809 },
    { "lat": 50.4538441, "lon": 3.9428640 },
    { "lat": 50.4537976, "lon": 3.9429030 },
    { "lat": 50.4537481, "lon": 3.9429150 },
    { "lat": 50.4536976, "lon": 3.9428996 },
    { "lat": 50.4536793, "lon": 3.9428824 },
    { "lat": 50.4536535, "lon": 3.9428582 },
    { "lat": 50.4536358, "lon": 3.9428243 },
    { "lat": 50.4536209, "lon": 3.9427958 },
    { "lat": 50.4536036, "lon": 3.9427197 },
    { "lat": 50.4536153, "lon": 3.9426445 },
    { "lat": 50.4536419, "lon": 3.9425768 },
    { "lat": 50.4536226, "lon": 3.9425580 },
    { "lat": 50.4536825, "lon": 3.9424014 },
    { "lat": 50.4537210, "lon": 3.9423006 },
    { "lat": 50.4537531, "lon": 3.9422166 },
    { "lat": 50.4537901, "lon": 3.9421198 },
    { "lat": 50.4538197, "lon": 3.9420422 },
    { "lat": 50.4538406, "lon": 3.9419876 },
    { "lat": 50.4538648, "lon": 3.9419241 },
    { "lat": 50.4538932, "lon": 3.9418500 },
    { "lat": 50.4539116, "lon": 3.9418020 },
    { "lat": 50.4539374, "lon": 3.9417344 },
    { "lat": 50.4539660, "lon": 3.9416595 },
    { "lat": 50.4539847, "lon": 3.9416106 },
    { "lat": 50.4540120, "lon": 3.9415392 },
    { "lat": 50.4540386, "lon": 3.9414696 },
    { "lat": 50.4540621, "lon": 3.9414082 },
    { "lat": 50.4540849, "lon": 3.9413485 },
    { "lat": 50.4541106, "lon": 3.9412813 },
    { "lat": 50.4541976, "lon": 3.9410537 },
    { "lat": 50.4542448, "lon": 3.9409302 },
    { "lat": 50.4542573, "lon": 3.9408974 },
    { "lat": 50.4542736, "lon": 3.9408356 },
    { "lat": 50.4542922, "lon": 3.9408060 },
    { "lat": 50.4543282, "lon": 3.9407022 },
    { "lat": 50.4543521, "lon": 3.9406331 }
  ],
  "tags": {
    "access": "no",
    "architect": "Santiago Calatrava",
    "building": "yes",
    "check_date": "2024-02-23",
    "layer": "1",
    "name": "Gare de Mons",
    "public_transport": "station",
    "railway": "station",
    "train": "yes"
  }
},
{
  "type": "way",
  "id": 1027027790,
  "bounds": {
    "minlat": 50.6910133,
    "minlon": 4.5749237,
    "maxlat": 50.6913294,
    "maxlon": 4.5752134
  },
  "nodes": [
    9468664070,
    9468664071,
    9468664072,
    9468664073,
    9468664070
  ],
  "geometry": [
    { "lat": 50.6910337, "lon": 4.5749237 },
    { "lat": 50.6913294, "lon": 4.5751383 },
    { "lat": 50.6913065, "lon": 4.5752134 },
    { "lat": 50.6910133, "lon": 4.5749936 },
    { "lat": 50.6910337, "lon": 4.5749237 }
  ],
  "tags": {
    "building": "yes",
    "public_transport": "station",
    "railway": "station",
    "train": "yes"
  }
}

  ]
}
